{
  "type": "FeatureCollection",
  "features": [
    {
      "id": "00320000000000001089",
      "type": "Feature",
      "geometry": {
        "type": "Polygon",
        "coordinates": [
          [
            [
              -87.47323109888148,
              18.361186923793074
            ],
            [
              -87.4049110015204,
              18.36131284399719
            ],
            [
              -87.33659091682505,
              18.361438827346788
            ],
            [
              -87.26827075616697,
              18.361564776036804
            ],
            [
              -87.19995065361084,
              18.361690776170484
            ],
            [
              -87.20046787877972,
              18.813602858554287
            ],
            [
              -87.2689731006016,
              18.813473532364085
            ],
            [
              -87.33747821418334,
              18.81334417996024
            ],
            [
              -87.40598338342564,
              18.813214900709003
            ],
            [
              -87.47448861530663,
              18.813085610317767
            ],
            [
              -87.47323109888148,
              18.361186923793074
            ]
          ]
        ]
      },
      "properties": {
        "ISO3": "MEX",
        "NAME": "Banco Chinchorro",
        "DESIG": "Reserva de la Biósfera",
        "REALM": "Marine",
        "VERIF": "State Verified",
        "STATUS": "Designated",
        "NO_TAKE": "Not Reported",
        "SITE_ID": 103171,
        "CONS_OBJ": "Not Applicable",
        "GIS_AREA": 1444.76483566111,
        "GOV_TYPE": "Federal or national ministry or agency",
        "INT_CRIT": "Not Applicable",
        "IUCN_CAT": "VI",
        "NAME_ENG": "Banco Chinchorro",
        "OWN_TYPE": "State",
        "REP_AREA": 1443.6,
        "SITE_PID": "103171",
        "DESIG_ENG": "Biosphere Reserve",
        "MANG_AUTH": "National Commission of Natural Protected Areas",
        "MANG_PLAN": "http://www.conanp.gob.mx/que_hacemos/pdf/programas_manejo/chinchorro.pdf",
        "OECM_ASMT": "Not Applicable",
        "PRNT_ISO3": "MEX",
        "SITE_TYPE": "PA",
        "STATUS_YR": 1996,
        "SUPP_INFO": "Not Applicable",
        "DESIG_TYPE": "National",
        "GIS_M_AREA": 1439.02861672634,
        "GOVSUBTYPE": "Not Applicable",
        "INLND_WTRS": "Not Applicable",
        "METADATAID": 1850,
        "NO_TK_AREA": 0,
        "OWNSUBTYPE": "Not Applicable",
        "REP_M_AREA": 1437.74213
      }
    }
  ]
}