{
  "type": "FeatureCollection",
  "features": [
    {
      "id": "002d0000000000000c62",
      "type": "Feature",
      "geometry": {
        "type": "Polygon",
        "coordinates": [
          [
            [
              -96.7184993983431,
              17.148199913143525
            ],
            [
              -96.71745150834508,
              17.135143691467132
            ],
            [
              -96.6544756213341,
              17.11508222568411
            ],
            [
              -96.648576193449,
              17.113169264630397
            ],
            [
              -96.63189470850499,
              17.116237055710965
            ],
            [
              -96.62607561794619,
              17.122069563890236
            ],
            [
              -96.63610859851059,
              17.1348226374429
            ],
            [
              -96.65027512151619,
              17.14510530720119
            ],
            [
              -96.67030095643352,
              17.14667048207575
            ],
            [
              -96.67714117311255,
              17.14939048089741
            ],
            [
              -96.70771280732967,
              17.154928704797005
            ],
            [
              -96.7105131362449,
              17.155432604927764
            ],
            [
              -96.71854397241471,
              17.148739459983826
            ],
            [
              -96.7184993983431,
              17.148199913143525
            ]
          ]
        ]
      },
      "properties": {
        "ISO3": "MEX",
        "NAME": "Benito Juárez",
        "DESIG": "Parque Nacional",
        "REALM": "Terrestrial",
        "VERIF": "State Verified",
        "STATUS": "Designated",
        "NO_TAKE": "Not Applicable",
        "SITE_ID": 5382,
        "CONS_OBJ": "Not Applicable",
        "GIS_AREA": 25.8975509832398,
        "GOV_TYPE": "Federal or national ministry or agency",
        "INT_CRIT": "Not Applicable",
        "IUCN_CAT": "II",
        "NAME_ENG": "Benito Juárez",
        "OWN_TYPE": "State",
        "REP_AREA": 25.91515659,
        "SITE_PID": "5382",
        "DESIG_ENG": "National Park",
        "MANG_AUTH": "National Commission of Natural Protected Areas",
        "MANG_PLAN": "http://www.conanp.gob.mx/que_hacemos/pdf/programas_manejo/2013/BENITO_JUAREZ.pdf",
        "OECM_ASMT": "Not Applicable",
        "PRNT_ISO3": "MEX",
        "SITE_TYPE": "PA",
        "STATUS_YR": 1937,
        "SUPP_INFO": "Not Applicable",
        "DESIG_TYPE": "National",
        "GIS_M_AREA": 0,
        "GOVSUBTYPE": "Not Applicable",
        "INLND_WTRS": "Not Reported",
        "METADATAID": 1850,
        "NO_TK_AREA": 0,
        "OWNSUBTYPE": "Not Applicable",
        "REP_M_AREA": 0
      }
    }
  ]
}