{
  "type": "FeatureCollection",
  "features": [
    {
      "id": "002d0000000000000be5",
      "type": "Feature",
      "geometry": {
        "type": "Polygon",
        "coordinates": [
          [
            [
              -91.11137150486442,
              16.69757659211627
            ],
            [
              -91.10903494358725,
              16.695632355848314
            ],
            [
              -91.10804952741134,
              16.69480746649739
            ],
            [
              -91.06217875127325,
              16.683316330296506
            ],
            [
              -91.05653799600825,
              16.680324265164693
            ],
            [
              -91.03085352694272,
              16.680083480222056
            ],
            [
              -91.03048346706717,
              16.71622009040966
            ],
            [
              -91.0303897843217,
              16.725254231495448
            ],
            [
              -91.08708282637265,
              16.725780343337398
            ],
            [
              -91.14377580244636,
              16.72630653582359
            ],
            [
              -91.14590285027295,
              16.72632442019599
            ],
            [
              -91.11137150486442,
              16.69757659211627
            ]
          ]
        ]
      },
      "properties": {
        "ISO3": "MEX",
        "NAME": "Bonampak",
        "DESIG": "Monumento Natural",
        "REALM": "Terrestrial",
        "VERIF": "State Verified",
        "STATUS": "Designated",
        "NO_TAKE": "Not Applicable",
        "SITE_ID": 67671,
        "CONS_OBJ": "Not Applicable",
        "GIS_AREA": 43.5572545676726,
        "GOV_TYPE": "Federal or national ministry or agency",
        "INT_CRIT": "Not Applicable",
        "IUCN_CAT": "III",
        "NAME_ENG": "Bonampak",
        "OWN_TYPE": "State",
        "REP_AREA": 43.574,
        "SITE_PID": "67671",
        "DESIG_ENG": "Natural Monument",
        "MANG_AUTH": "National Commission of Natural Protected Areas",
        "MANG_PLAN": "http://www.conanp.gob.mx/que_hacemos/pdf/programas_manejo/Bonampack1.pdf",
        "OECM_ASMT": "Not Applicable",
        "PRNT_ISO3": "MEX",
        "SITE_TYPE": "PA",
        "STATUS_YR": 1992,
        "SUPP_INFO": "Not Applicable",
        "DESIG_TYPE": "National",
        "GIS_M_AREA": 0,
        "GOVSUBTYPE": "Not Applicable",
        "INLND_WTRS": "Not Reported",
        "METADATAID": 1850,
        "NO_TK_AREA": 0,
        "OWNSUBTYPE": "Not Applicable",
        "REP_M_AREA": 0
      }
    }
  ]
}