{
  "type": "FeatureCollection",
  "features": [
    {
      "id": "002d0000000000000c39",
      "type": "Feature",
      "geometry": {
        "type": "Polygon",
        "coordinates": [
          [
            [
              -100.23946798414771,
              19.48433189947874
            ],
            [
              -100.2393921821276,
              19.475074825066432
            ],
            [
              -100.23910677013403,
              19.438394232253103
            ],
            [
              -100.23879466597934,
              19.438309482188085
            ],
            [
              -100.23638231229596,
              19.437631693501068
            ],
            [
              -100.23166011619115,
              19.43631181208262
            ],
            [
              -100.21845225030779,
              19.432619699531408
            ],
            [
              -100.19120270651271,
              19.424999056172233
            ],
            [
              -100.1878048189074,
              19.424049290897518
            ],
            [
              -100.18566891418106,
              19.423447297385966
            ],
            [
              -100.18280621568043,
              19.42264910358505
            ],
            [
              -100.16801983112254,
              19.418515574026188
            ],
            [
              -100.13358214823938,
              19.39479760214045
            ],
            [
              -100.14534974980633,
              19.374838660512975
            ],
            [
              -100.10952754650049,
              19.395156547479075
            ],
            [
              -100.07370533135723,
              19.41547449832877
            ],
            [
              -100.07416023146422,
              19.48558489094136
            ],
            [
              -100.0741825196661,
              19.48915218050976
            ],
            [
              -100.15279642156436,
              19.488634912401018
            ],
            [
              -100.16073360289049,
              19.488585837831014
            ],
            [
              -100.17679981730524,
              19.48847881817043
            ],
            [
              -100.17768717433984,
              19.488474389322498
            ],
            [
              -100.20250650670106,
              19.488309401385795
            ],
            [
              -100.23354184684021,
              19.488108772845216
            ],
            [
              -100.23425079977805,
              19.488104314955606
            ],
            [
              -100.23949921186099,
              19.488068637606933
            ],
            [
              -100.23946798414771,
              19.48433189947874
            ]
          ]
        ]
      },
      "properties": {
        "ISO3": "MEX",
        "NAME": "Bosencheve",
        "DESIG": "Parque Nacional",
        "REALM": "Terrestrial",
        "VERIF": "State Verified",
        "STATUS": "Designated",
        "NO_TAKE": "Not Applicable",
        "SITE_ID": 216,
        "CONS_OBJ": "Not Applicable",
        "GIS_AREA": 146.055124414801,
        "GOV_TYPE": "Federal or national ministry or agency",
        "INT_CRIT": "Not Applicable",
        "IUCN_CAT": "II",
        "NAME_ENG": "Bosencheve",
        "OWN_TYPE": "State",
        "REP_AREA": 145.9961686,
        "SITE_PID": "216",
        "DESIG_ENG": "National Park",
        "MANG_AUTH": "National Commission of Natural Protected Areas",
        "MANG_PLAN": "Not Reported",
        "OECM_ASMT": "Not Applicable",
        "PRNT_ISO3": "MEX",
        "SITE_TYPE": "PA",
        "STATUS_YR": 1940,
        "SUPP_INFO": "Not Applicable",
        "DESIG_TYPE": "National",
        "GIS_M_AREA": 0,
        "GOVSUBTYPE": "Not Applicable",
        "INLND_WTRS": "Not Reported",
        "METADATAID": 1850,
        "NO_TK_AREA": 0,
        "OWNSUBTYPE": "Not Applicable",
        "REP_M_AREA": 0
      }
    }
  ]
}