{
  "type": "FeatureCollection",
  "features": [
    {
      "id": "002e0000000000000746",
      "type": "Feature",
      "geometry": {
        "type": "Polygon",
        "coordinates": [
          [
            [
              -109.90063213799088,
              22.847693584599234
            ],
            [
              -109.83397305405074,
              22.847693574878505
            ],
            [
              -109.83397750537766,
              22.900467067685003
            ],
            [
              -109.90064104158768,
              22.900467031008624
            ],
            [
              -109.90063213799088,
              22.847693584599234
            ]
          ]
        ]
      },
      "properties": {
        "ISO3": "MEX",
        "NAME": "Cabo San Lucas",
        "DESIG": "Área de Protección de Flora y Fauna",
        "REALM": "Marine",
        "VERIF": "State Verified",
        "STATUS": "Designated",
        "NO_TAKE": "Not Reported",
        "SITE_ID": 301991,
        "CONS_OBJ": "Not Applicable",
        "GIS_AREA": 39.9791439653226,
        "GOV_TYPE": "Federal or national ministry or agency",
        "INT_CRIT": "Not Applicable",
        "IUCN_CAT": "VI",
        "NAME_ENG": "Cabo San Lucas",
        "OWN_TYPE": "State",
        "REP_AREA": 39.96049136,
        "SITE_PID": "301991",
        "DESIG_ENG": "Flora and Fauna Protection Area",
        "MANG_AUTH": "National Commission of Natural Protected Areas",
        "MANG_PLAN": "Not Reported",
        "OECM_ASMT": "Not Applicable",
        "PRNT_ISO3": "MEX",
        "SITE_TYPE": "PA",
        "STATUS_YR": 2000,
        "SUPP_INFO": "Not Applicable",
        "DESIG_TYPE": "National",
        "GIS_M_AREA": 37.8206997575069,
        "GOVSUBTYPE": "Not Applicable",
        "INLND_WTRS": "Not Applicable",
        "METADATAID": 1850,
        "NO_TK_AREA": 0,
        "OWNSUBTYPE": "Not Applicable",
        "REP_M_AREA": 37.87996
      }
    }
  ]
}