{
  "type": "FeatureCollection",
  "features": [
    {
      "id": "002d0000000000000c63",
      "type": "Feature",
      "geometry": {
        "type": "Polygon",
        "coordinates": [
          [
            [
              -97.35633365532567,
              18.77295369105208
            ],
            [
              -97.32557921866221,
              18.742480183422963
            ],
            [
              -97.35261918878071,
              18.715319749320315
            ],
            [
              -97.32817445943665,
              18.66788390761403
            ],
            [
              -97.29685372314734,
              18.674844523017192
            ],
            [
              -97.24641680208408,
              18.647724281197977
            ],
            [
              -97.21121216828934,
              18.702941322322243
            ],
            [
              -97.17600761434875,
              18.7581583768109
            ],
            [
              -97.15965159144511,
              18.780596604595708
            ],
            [
              -97.12553056355364,
              18.82315424906655
            ],
            [
              -97.08559040833197,
              18.83111372809491
            ],
            [
              -97.04565024876143,
              18.839073237276587
            ],
            [
              -97.01030965242697,
              18.81903624497754
            ],
            [
              -96.97496899967574,
              18.798999314118824
            ],
            [
              -96.98724491668833,
              18.824438462837264
            ],
            [
              -96.98660281438077,
              18.837075522720305
            ],
            [
              -97.00892955603307,
              18.894673762310212
            ],
            [
              -97.04653094481719,
              18.9278093560784
            ],
            [
              -97.08413231509601,
              18.960944936709435
            ],
            [
              -97.0286878508997,
              18.910708694228827
            ],
            [
              -97.06421346880899,
              18.873595560899265
            ],
            [
              -97.08848879289661,
              18.867513356078607
            ],
            [
              -97.15265527540393,
              18.858670933712695
            ],
            [
              -97.16440949726491,
              18.86783445027373
            ],
            [
              -97.18201403026207,
              18.863032002062603
            ],
            [
              -97.2440579038048,
              18.87355547947785
            ],
            [
              -97.29185505537396,
              18.8875481272426
            ],
            [
              -97.3113324138071,
              18.884110117798738
            ],
            [
              -97.31857398894438,
              18.87422874029749
            ],
            [
              -97.31497551128834,
              18.85343149763794
            ],
            [
              -97.32753229310491,
              18.82871022584182
            ],
            [
              -97.32729599324149,
              18.808836056016506
            ],
            [
              -97.35681519492218,
              18.79779089702731
            ],
            [
              -97.35633365532567,
              18.77295369105208
            ]
          ]
        ]
      },
      "properties": {
        "ISO3": "MEX",
        "NAME": "Cañón del Río Blanco",
        "DESIG": "Parque Nacional",
        "REALM": "Terrestrial",
        "VERIF": "State Verified",
        "STATUS": "Designated",
        "NO_TAKE": "Not Applicable",
        "SITE_ID": 5385,
        "CONS_OBJ": "Not Applicable",
        "GIS_AREA": 487.970027474718,
        "GOV_TYPE": "Federal or national ministry or agency",
        "INT_CRIT": "Not Applicable",
        "IUCN_CAT": "II",
        "NAME_ENG": "Cañón del Río Blanco",
        "OWN_TYPE": "State",
        "REP_AREA": 487.99775471,
        "SITE_PID": "5385",
        "DESIG_ENG": "National Park",
        "MANG_AUTH": "National Commission of Natural Protected Areas",
        "MANG_PLAN": "Not Reported",
        "OECM_ASMT": "Not Applicable",
        "PRNT_ISO3": "MEX",
        "SITE_TYPE": "PA",
        "STATUS_YR": 1938,
        "SUPP_INFO": "Not Applicable",
        "DESIG_TYPE": "National",
        "GIS_M_AREA": 0,
        "GOVSUBTYPE": "Not Applicable",
        "INLND_WTRS": "Not Reported",
        "METADATAID": 1850,
        "NO_TK_AREA": 0,
        "OWNSUBTYPE": "Not Applicable",
        "REP_M_AREA": 0
      }
    }
  ]
}