{
  "type": "FeatureCollection",
  "features": [
    {
      "id": "002d0000000000000c5d",
      "type": "Feature",
      "geometry": {
        "type": "Polygon",
        "coordinates": [
          [
            [
              -100.82046210140395,
              19.645318832075294
            ],
            [
              -100.80394555618685,
              19.681611451096558
            ],
            [
              -100.82264258127991,
              19.69023538779887
            ],
            [
              -100.8400999411105,
              19.65346559046595
            ],
            [
              -100.82046210140395,
              19.645318832075294
            ]
          ]
        ]
      },
      "properties": {
        "ISO3": "MEX",
        "NAME": "Cerro de Garnica",
        "DESIG": "Parque Nacional",
        "REALM": "Terrestrial",
        "VERIF": "State Verified",
        "STATUS": "Designated",
        "NO_TAKE": "Not Applicable",
        "SITE_ID": 5373,
        "CONS_OBJ": "Not Applicable",
        "GIS_AREA": 9.78239029639811,
        "GOV_TYPE": "Federal or national ministry or agency",
        "INT_CRIT": "Not Applicable",
        "IUCN_CAT": "II",
        "NAME_ENG": "Cerro de Garnica",
        "OWN_TYPE": "State",
        "REP_AREA": 19.36,
        "SITE_PID": "5373",
        "DESIG_ENG": "National Park",
        "MANG_AUTH": "National Commission of Natural Protected Areas",
        "MANG_PLAN": "Not Reported",
        "OECM_ASMT": "Not Applicable",
        "PRNT_ISO3": "MEX",
        "SITE_TYPE": "PA",
        "STATUS_YR": 1936,
        "SUPP_INFO": "Not Applicable",
        "DESIG_TYPE": "National",
        "GIS_M_AREA": 0,
        "GOVSUBTYPE": "Not Applicable",
        "INLND_WTRS": "Not Reported",
        "METADATAID": 1850,
        "NO_TK_AREA": 0,
        "OWNSUBTYPE": "Not Applicable",
        "REP_M_AREA": 0
      }
    }
  ]
}