{
  "type": "FeatureCollection",
  "features": [
    {
      "id": "002d000000000000125a",
      "type": "Feature",
      "geometry": {
        "type": "Polygon",
        "coordinates": [
          [
            [
              -99.10703910808577,
              19.3288252091821
            ],
            [
              -99.09942303525284,
              19.325668197241733
            ],
            [
              -99.09799163680806,
              19.322729574297576
            ],
            [
              -99.07562029555672,
              19.318448903668767
            ],
            [
              -99.07467500326668,
              19.3387823652823
            ],
            [
              -99.08087314597093,
              19.352333561264633
            ],
            [
              -99.08658525809322,
              19.356400322223983
            ],
            [
              -99.0984865758474,
              19.35539695620628
            ],
            [
              -99.10559887859284,
              19.355998943629192
            ],
            [
              -99.1089520823455,
              19.337859379485224
            ],
            [
              -99.10703910808577,
              19.3288252091821
            ]
          ]
        ]
      },
      "properties": {
        "ISO3": "MEX",
        "NAME": "Cerro de La Estrella",
        "DESIG": "Parque Nacional",
        "REALM": "Terrestrial",
        "VERIF": "State Verified",
        "STATUS": "Designated",
        "NO_TAKE": "Not Applicable",
        "SITE_ID": 306783,
        "CONS_OBJ": "Not Applicable",
        "GIS_AREA": 11.8427504861601,
        "GOV_TYPE": "Federal or national ministry or agency",
        "INT_CRIT": "Not Applicable",
        "IUCN_CAT": "II",
        "NAME_ENG": "Cerro de La Estrella",
        "OWN_TYPE": "State",
        "REP_AREA": 11.83339468,
        "SITE_PID": "306783",
        "DESIG_ENG": "National Park",
        "MANG_AUTH": "National Commission of Natural Protected Areas",
        "MANG_PLAN": "Not Reported",
        "OECM_ASMT": "Not Applicable",
        "PRNT_ISO3": "MEX",
        "SITE_TYPE": "PA",
        "STATUS_YR": 1938,
        "SUPP_INFO": "Not Applicable",
        "DESIG_TYPE": "National",
        "GIS_M_AREA": 0,
        "GOVSUBTYPE": "Not Applicable",
        "INLND_WTRS": "Not Reported",
        "METADATAID": 1850,
        "NO_TK_AREA": 0,
        "OWNSUBTYPE": "Not Applicable",
        "REP_M_AREA": 0
      }
    }
  ]
}