{
  "type": "FeatureCollection",
  "features": [
    {
      "id": "002e00000000000000ac",
      "type": "Feature",
      "geometry": {
        "type": "Polygon",
        "coordinates": [
          [
            [
              -107.0666727339184,
              26.004514189247153
            ],
            [
              -107.07861865465233,
              25.98479154287868
            ],
            [
              -107.05089196229204,
              25.976087399521862
            ],
            [
              -107.05213604587537,
              25.94944430927377
            ],
            [
              -107.05097675729381,
              25.945364226310787
            ],
            [
              -107.01426047791209,
              25.95927663141175
            ],
            [
              -106.97639379288154,
              25.94223839997511
            ],
            [
              -106.91360077659988,
              25.967472461993655
            ],
            [
              -106.91347586525013,
              25.97312656727311
            ],
            [
              -106.9016682213727,
              25.971267121007738
            ],
            [
              -106.90233255071976,
              25.963954181538135
            ],
            [
              -106.89684344869754,
              25.959758195463632
            ],
            [
              -106.89083254903272,
              25.957301260091917
            ],
            [
              -106.89019490763454,
              25.97895903380225
            ],
            [
              -106.89861369992977,
              25.99090503872815
            ],
            [
              -106.94083693798204,
              25.997152220686157
            ],
            [
              -106.927031528127,
              26.02759898425451
            ],
            [
              -106.93847362179791,
              26.045011761913536
            ],
            [
              -106.95722409389545,
              26.045765298989142
            ],
            [
              -106.96125510443912,
              26.00993203089525
            ],
            [
              -106.95361226835927,
              26.007849605048236
            ],
            [
              -106.95861531654067,
              25.979516484752374
            ],
            [
              -106.98533876200011,
              25.985072479122266
            ],
            [
              -106.99264272998026,
              25.968404356268998
            ],
            [
              -107.01861700801214,
              25.975904586133023
            ],
            [
              -107.05139586672178,
              25.982294471664645
            ],
            [
              -107.03389392505424,
              26.024375029745386
            ],
            [
              -107.03028199933466,
              26.023541145240504
            ],
            [
              -107.03083938166691,
              26.03506795064849
            ],
            [
              -107.0111168130309,
              26.034791441483602
            ],
            [
              -107.01084030731525,
              26.054790516717333
            ],
            [
              -107.0355615962448,
              26.043678498395053
            ],
            [
              -107.0644521577834,
              26.031652268662857
            ],
            [
              -107.08736741354735,
              26.021735203484177
            ],
            [
              -107.0666727339184,
              26.004514189247153
            ]
          ]
        ]
      },
      "properties": {
        "ISO3": "MEX",
        "NAME": "Cerro Mohinora",
        "DESIG": "Área de Protección de Flora y Fauna",
        "REALM": "Terrestrial",
        "VERIF": "State Verified",
        "STATUS": "Designated",
        "NO_TAKE": "Not Applicable",
        "SITE_ID": 555599658,
        "CONS_OBJ": "Not Applicable",
        "GIS_AREA": 91.2496114017388,
        "GOV_TYPE": "Federal or national ministry or agency",
        "INT_CRIT": "Not Applicable",
        "IUCN_CAT": "VI",
        "NAME_ENG": "Cerro Mohinora",
        "OWN_TYPE": "State",
        "REP_AREA": 91.26356869,
        "SITE_PID": "555599658",
        "DESIG_ENG": "Flora and Fauna Protection Area",
        "MANG_AUTH": "National Commission of Natural Protected Areas",
        "MANG_PLAN": "Not Reported",
        "OECM_ASMT": "Not Applicable",
        "PRNT_ISO3": "MEX",
        "SITE_TYPE": "PA",
        "STATUS_YR": 2015,
        "SUPP_INFO": "Not Applicable",
        "DESIG_TYPE": "National",
        "GIS_M_AREA": 0,
        "GOVSUBTYPE": "Not Applicable",
        "INLND_WTRS": "Not Reported",
        "METADATAID": 1850,
        "NO_TK_AREA": 0,
        "OWNSUBTYPE": "Not Applicable",
        "REP_M_AREA": 0
      }
    }
  ]
}