{
  "type": "FeatureCollection",
  "features": [
    {
      "id": "002d000000000000125b",
      "type": "Feature",
      "geometry": {
        "type": "Polygon",
        "coordinates": [
          [
            [
              -100.41316777698965,
              20.589899127624417
            ],
            [
              -100.411968292196,
              20.589141038965938
            ],
            [
              -100.40956482720071,
              20.589181219294133
            ],
            [
              -100.40836984734152,
              20.58946656100877
            ],
            [
              -100.4050032278448,
              20.590420826636436
            ],
            [
              -100.40576573558684,
              20.59265931070444
            ],
            [
              -100.4036074850234,
              20.593341536245827
            ],
            [
              -100.404766831177,
              20.596061614006572
            ],
            [
              -100.4084055053604,
              20.595584467806738
            ],
            [
              -100.41008213382044,
              20.59510288585349
            ],
            [
              -100.41441193885194,
              20.593698273537733
            ],
            [
              -100.41316777698965,
              20.589899127624417
            ]
          ]
        ]
      },
      "properties": {
        "ISO3": "MEX",
        "NAME": "Cerro de Las Campanas",
        "DESIG": "Parque Nacional",
        "REALM": "Terrestrial",
        "VERIF": "State Verified",
        "STATUS": "Designated",
        "NO_TAKE": "Not Applicable",
        "SITE_ID": 306784,
        "CONS_OBJ": "Not Applicable",
        "GIS_AREA": 0.585072382325078,
        "GOV_TYPE": "Federal or national ministry or agency",
        "INT_CRIT": "Not Applicable",
        "IUCN_CAT": "II",
        "NAME_ENG": "Cerro de Las Campanas",
        "OWN_TYPE": "State",
        "REP_AREA": 0.58493283,
        "SITE_PID": "306784",
        "DESIG_ENG": "National Park",
        "MANG_AUTH": "National Commission of Natural Protected Areas",
        "MANG_PLAN": "Not Reported",
        "OECM_ASMT": "Not Applicable",
        "PRNT_ISO3": "MEX",
        "SITE_TYPE": "PA",
        "STATUS_YR": 1937,
        "SUPP_INFO": "Not Applicable",
        "DESIG_TYPE": "National",
        "GIS_M_AREA": 0,
        "GOVSUBTYPE": "Not Applicable",
        "INLND_WTRS": "Not Reported",
        "METADATAID": 1850,
        "NO_TK_AREA": 0,
        "OWNSUBTYPE": "Not Applicable",
        "REP_M_AREA": 0
      }
    }
  ]
}