{
  "type": "FeatureCollection",
  "features": [
    {
      "id": "002d0000000000000c3d",
      "type": "Feature",
      "geometry": {
        "type": "Polygon",
        "coordinates": [
          [
            [
              -115.9240304097805,
              32.03128799341633
            ],
            [
              -115.91093406866277,
              32.02220034440781
            ],
            [
              -115.88551491119766,
              32.0418538362517
            ],
            [
              -115.86009584597367,
              32.06150733040943
            ],
            [
              -115.85375051620427,
              32.06119072715635
            ],
            [
              -115.85546283595474,
              32.131064819955434
            ],
            [
              -115.89229273754373,
              32.100330549021294
            ],
            [
              -115.92912275406931,
              32.0695961573296
            ],
            [
              -115.9345672494341,
              32.04917792014395
            ],
            [
              -115.95332675316725,
              32.04335434202671
            ],
            [
              -115.9240304097805,
              32.03128799341633
            ]
          ]
        ]
      },
      "properties": {
        "ISO3": "MEX",
        "NAME": "Constitución de 1857",
        "DESIG": "Parque Nacional",
        "REALM": "Terrestrial",
        "VERIF": "State Verified",
        "STATUS": "Designated",
        "NO_TAKE": "Not Applicable",
        "SITE_ID": 221,
        "CONS_OBJ": "Not Applicable",
        "GIS_AREA": 50.1036285465278,
        "GOV_TYPE": "Federal or national ministry or agency",
        "INT_CRIT": "Not Applicable",
        "IUCN_CAT": "II",
        "NAME_ENG": "Constitución de 1857",
        "OWN_TYPE": "State",
        "REP_AREA": 50.094861,
        "SITE_PID": "221",
        "DESIG_ENG": "National Park",
        "MANG_AUTH": "National Commission of Natural Protected Areas",
        "MANG_PLAN": "http://www.conanp.gob.mx/que_hacemos/pdf/programas_manejo/PM_constitucion.pdf",
        "OECM_ASMT": "Not Applicable",
        "PRNT_ISO3": "MEX",
        "SITE_TYPE": "PA",
        "STATUS_YR": 1962,
        "SUPP_INFO": "Not Applicable",
        "DESIG_TYPE": "National",
        "GIS_M_AREA": 0,
        "GOVSUBTYPE": "Not Applicable",
        "INLND_WTRS": "Not Reported",
        "METADATAID": 1850,
        "NO_TK_AREA": 0,
        "OWNSUBTYPE": "Not Applicable",
        "REP_M_AREA": 0
      }
    }
  ]
}