{
  "type": "FeatureCollection",
  "features": [
    {
      "id": "002e000000000000164c",
      "type": "Feature",
      "geometry": {
        "type": "Polygon",
        "coordinates": [
          [
            [
              -106.531946233093,
              28.81683352349059
            ],
            [
              -106.52069594321047,
              28.76803311666174
            ],
            [
              -106.52044629514914,
              28.766945101831332
            ],
            [
              -106.51462266560513,
              28.76948237397054
            ],
            [
              -106.51400732872922,
              28.769633912310443
            ],
            [
              -106.51361043964073,
              28.76973652319861
            ],
            [
              -106.45097794335534,
              28.784308817519
            ],
            [
              -106.44444090298407,
              28.80215861706085
            ],
            [
              -106.44341086217017,
              28.80496344387175
            ],
            [
              -106.42770143844191,
              28.823357158967575
            ],
            [
              -106.4114479803984,
              28.835838230900116
            ],
            [
              -106.42198039243806,
              28.84537628428406
            ],
            [
              -106.43673998377533,
              28.829992314301098
            ],
            [
              -106.4380242143947,
              28.828654609654613
            ],
            [
              -106.45962412484572,
              28.806827317130544
            ],
            [
              -106.46023498887561,
              28.806207529164826
            ],
            [
              -106.47310399011735,
              28.807081521641457
            ],
            [
              -106.473148569731,
              28.808579780978885
            ],
            [
              -106.47398686596233,
              28.837456890947127
            ],
            [
              -106.50459860585478,
              28.829666858550276
            ],
            [
              -106.51552782984994,
              28.826884376864022
            ],
            [
              -106.53320371417841,
              28.822380681528095
            ],
            [
              -106.531946233093,
              28.81683352349059
            ]
          ]
        ]
      },
      "properties": {
        "ISO3": "MEX",
        "NAME": "Cumbres de Majalca",
        "DESIG": "Parque Nacional",
        "REALM": "Terrestrial",
        "VERIF": "State Verified",
        "STATUS": "Designated",
        "NO_TAKE": "Not Applicable",
        "SITE_ID": 5392,
        "CONS_OBJ": "Not Applicable",
        "GIS_AREA": 47.0269402641483,
        "GOV_TYPE": "Federal or national ministry or agency",
        "INT_CRIT": "Not Applicable",
        "IUCN_CAT": "II",
        "NAME_ENG": "Cumbres de Majalca",
        "OWN_TYPE": "State",
        "REP_AREA": 47.01275783,
        "SITE_PID": "5392",
        "DESIG_ENG": "National Park",
        "MANG_AUTH": "National Commission of Natural Protected Areas",
        "MANG_PLAN": "http://www.conanp.gob.mx/que_hacemos/pdf/programas_manejo/2016/CUMBRES_DE_MAJALCA.pdf",
        "OECM_ASMT": "Not Applicable",
        "PRNT_ISO3": "MEX",
        "SITE_TYPE": "PA",
        "STATUS_YR": 1939,
        "SUPP_INFO": "Not Applicable",
        "DESIG_TYPE": "National",
        "GIS_M_AREA": 0,
        "GOVSUBTYPE": "Not Applicable",
        "INLND_WTRS": "Not Reported",
        "METADATAID": 1850,
        "NO_TK_AREA": 0,
        "OWNSUBTYPE": "Not Applicable",
        "REP_M_AREA": 0
      }
    }
  ]
}