{
  "type": "FeatureCollection",
  "features": [
    {
      "id": "002d0000000000000c65",
      "type": "Feature",
      "geometry": {
        "type": "Polygon",
        "coordinates": [
          [
            [
              -99.56054307913881,
              18.90675349446904
            ],
            [
              -99.5534263392584,
              18.90183508617898
            ],
            [
              -99.55294475372094,
              18.900475021732
            ],
            [
              -99.55529923611512,
              18.895917792319267
            ],
            [
              -99.55717650398385,
              18.896394953117245
            ],
            [
              -99.55858110862852,
              18.890959359604565
            ],
            [
              -99.55026043646784,
              18.88871635505985
            ],
            [
              -99.54677783639968,
              18.903195107810046
            ],
            [
              -99.53778387356833,
              18.914512289453864
            ],
            [
              -99.5451369045218,
              18.91631376886321
            ],
            [
              -99.546345343532,
              18.9174329966196
            ],
            [
              -99.54750466032627,
              18.91719220117607
            ],
            [
              -99.55442525194728,
              18.92079515587092
            ],
            [
              -99.55562024532624,
              18.922155213828855
            ],
            [
              -99.5582243531012,
              18.921673626429904
            ],
            [
              -99.56245603215139,
              18.917152118582624
            ],
            [
              -99.56390079237654,
              18.911711964061485
            ],
            [
              -99.56054307913881,
              18.90675349446904
            ]
          ]
        ]
      },
      "properties": {
        "ISO3": "MEX",
        "NAME": "Desierto del Carmen o de Nixcongo",
        "DESIG": "Parque Nacional",
        "REALM": "Terrestrial",
        "VERIF": "State Verified",
        "STATUS": "Designated",
        "NO_TAKE": "Not Applicable",
        "SITE_ID": 5398,
        "CONS_OBJ": "Not Applicable",
        "GIS_AREA": 4.75246886263343,
        "GOV_TYPE": "Federal or national ministry or agency",
        "INT_CRIT": "Not Applicable",
        "IUCN_CAT": "II",
        "NAME_ENG": "Desierto del Carmen o de Nixcongo",
        "OWN_TYPE": "State",
        "REP_AREA": 5.29,
        "SITE_PID": "5398",
        "DESIG_ENG": "National Park",
        "MANG_AUTH": "National Commission of Natural Protected Areas",
        "MANG_PLAN": "Not Reported",
        "OECM_ASMT": "Not Applicable",
        "PRNT_ISO3": "MEX",
        "SITE_TYPE": "PA",
        "STATUS_YR": 1942,
        "SUPP_INFO": "Not Applicable",
        "DESIG_TYPE": "National",
        "GIS_M_AREA": 0,
        "GOVSUBTYPE": "Not Applicable",
        "INLND_WTRS": "Not Reported",
        "METADATAID": 1850,
        "NO_TK_AREA": 0,
        "OWNSUBTYPE": "Not Applicable",
        "REP_M_AREA": 0
      }
    }
  ]
}