{
  "type": "FeatureCollection",
  "features": [
    {
      "id": "002d0000000000000c60",
      "type": "Feature",
      "geometry": {
        "type": "Polygon",
        "coordinates": [
          [
            [
              -100.35377702531221,
              21.877584908317477
            ],
            [
              -100.34985307237515,
              21.872430222692273
            ],
            [
              -100.34561689934036,
              21.86860429548696
            ],
            [
              -100.34280765577543,
              21.869094837846518
            ],
            [
              -100.33318937818778,
              21.866816224683166
            ],
            [
              -100.32542162573588,
              21.87272901883145
            ],
            [
              -100.32097585927848,
              21.87787031926445
            ],
            [
              -100.32035159417663,
              21.885620212191053
            ],
            [
              -100.32705808970722,
              21.90066522326746
            ],
            [
              -100.32336155103475,
              21.90256037667485
            ],
            [
              -100.31751119994497,
              21.908147628931033
            ],
            [
              -100.3185055417825,
              21.911291301067454
            ],
            [
              -100.31582567354178,
              21.918488290287247
            ],
            [
              -100.34368167514327,
              21.929609224994937
            ],
            [
              -100.3591146020166,
              21.885936808356732
            ],
            [
              -100.35377702531221,
              21.877584908317477
            ]
          ]
        ]
      },
      "properties": {
        "ISO3": "MEX",
        "NAME": "El Potosí",
        "DESIG": "Parque Nacional",
        "REALM": "Terrestrial",
        "VERIF": "State Verified",
        "STATUS": "Designated",
        "NO_TAKE": "Not Applicable",
        "SITE_ID": 5377,
        "CONS_OBJ": "Not Applicable",
        "GIS_AREA": 20.0062664165775,
        "GOV_TYPE": "Federal or national ministry or agency",
        "INT_CRIT": "Not Applicable",
        "IUCN_CAT": "II",
        "NAME_ENG": "El Potosí",
        "OWN_TYPE": "State",
        "REP_AREA": 20,
        "SITE_PID": "5377",
        "DESIG_ENG": "National Park",
        "MANG_AUTH": "National Commission of Natural Protected Areas",
        "MANG_PLAN": "http://www.conanp.gob.mx/que_hacemos/pdf/programas_manejo/2015/EL_POTOSI.pdf",
        "OECM_ASMT": "Not Applicable",
        "PRNT_ISO3": "MEX",
        "SITE_TYPE": "PA",
        "STATUS_YR": 1936,
        "SUPP_INFO": "Not Applicable",
        "DESIG_TYPE": "National",
        "GIS_M_AREA": 0,
        "GOVSUBTYPE": "Not Applicable",
        "INLND_WTRS": "Not Reported",
        "METADATAID": 1850,
        "NO_TK_AREA": 0,
        "OWNSUBTYPE": "Not Applicable",
        "REP_M_AREA": 0
      }
    }
  ]
}