{
  "type": "FeatureCollection",
  "features": [
    {
      "id": "002d0000000000001262",
      "type": "Feature",
      "geometry": {
        "type": "Polygon",
        "coordinates": [
          [
            [
              -99.62521341417326,
              26.08112600862562
            ],
            [
              -99.62492356844623,
              26.08101899222941
            ],
            [
              -99.62476310036081,
              26.081201788198047
            ],
            [
              -99.62449551265394,
              26.081175064627935
            ],
            [
              -99.62425476939633,
              26.081161632018798
            ],
            [
              -99.62256916122541,
              26.08222295724814
            ],
            [
              -99.62214111745925,
              26.082668838681226
            ],
            [
              -99.621695237322,
              26.08327082044676
            ],
            [
              -99.62129837286689,
              26.084363257791086
            ],
            [
              -99.62199840837451,
              26.085246188399086
            ],
            [
              -99.6233228089871,
              26.084456907482327
            ],
            [
              -99.62308648633777,
              26.084135865620564
            ],
            [
              -99.62420566940965,
              26.083128091864662
            ],
            [
              -99.62530261074464,
              26.082686696053386
            ],
            [
              -99.6254497428203,
              26.081910789924486
            ],
            [
              -99.62549884353581,
              26.08140688779025
            ],
            [
              -99.62553893964316,
              26.080911980482384
            ],
            [
              -99.62521341417326,
              26.08112600862562
            ]
          ]
        ]
      },
      "properties": {
        "ISO3": "MEX",
        "NAME": "El Sabinal",
        "DESIG": "Parque Nacional",
        "REALM": "Terrestrial",
        "VERIF": "State Verified",
        "STATUS": "Designated",
        "NO_TAKE": "Not Applicable",
        "SITE_ID": 306791,
        "CONS_OBJ": "Not Applicable",
        "GIS_AREA": 0.092436561863314,
        "GOV_TYPE": "Federal or national ministry or agency",
        "INT_CRIT": "Not Applicable",
        "IUCN_CAT": "II",
        "NAME_ENG": "El Sabinal",
        "OWN_TYPE": "State",
        "REP_AREA": 0.08,
        "SITE_PID": "306791",
        "DESIG_ENG": "National Park",
        "MANG_AUTH": "National Commission of Natural Protected Areas",
        "MANG_PLAN": "Not Reported",
        "OECM_ASMT": "Not Applicable",
        "PRNT_ISO3": "MEX",
        "SITE_TYPE": "PA",
        "STATUS_YR": 1938,
        "SUPP_INFO": "Not Applicable",
        "DESIG_TYPE": "National",
        "GIS_M_AREA": 0,
        "GOVSUBTYPE": "Not Applicable",
        "INLND_WTRS": "Not Reported",
        "METADATAID": 1850,
        "NO_TK_AREA": 0,
        "OWNSUBTYPE": "Not Applicable",
        "REP_M_AREA": 0
      }
    }
  ]
}