{
  "type": "FeatureCollection",
  "features": [
    {
      "id": "002d0000000000001263",
      "type": "Feature",
      "geometry": {
        "type": "Polygon",
        "coordinates": [
          [
            [
              -99.12406401283877,
              19.51221911620594
            ],
            [
              -99.1243315728916,
              19.511300537591577
            ],
            [
              -99.12420670016472,
              19.51085464170179
            ],
            [
              -99.12402382402847,
              19.51055584940349
            ],
            [
              -99.1219994655136,
              19.506292945493936
            ],
            [
              -99.12220006696187,
              19.504330981303607
            ],
            [
              -99.12194146342107,
              19.503202834150255
            ],
            [
              -99.12068400191839,
              19.50231096509783
            ],
            [
              -99.1176205526277,
              19.501905217575633
            ],
            [
              -99.11576562139402,
              19.5017447238181
            ],
            [
              -99.11405779227091,
              19.500670024322872
            ],
            [
              -99.11323732126912,
              19.499252011530587
            ],
            [
              -99.11235886357065,
              19.497624486681698
            ],
            [
              -99.11329523261992,
              19.493923427829376
            ],
            [
              -99.11568981090315,
              19.49233148347629
            ],
            [
              -99.11621601148508,
              19.491016047761335
            ],
            [
              -99.11406226651597,
              19.49053898269059
            ],
            [
              -99.10818509757034,
              19.494547722062503
            ],
            [
              -99.10573258535824,
              19.499301106247195
            ],
            [
              -99.1054249081939,
              19.50116497587926
            ],
            [
              -99.11325065944824,
              19.51093939283943
            ],
            [
              -99.1205235068803,
              19.51630813091745
            ],
            [
              -99.1243493877455,
              19.51339628271194
            ],
            [
              -99.12406401283877,
              19.51221911620594
            ]
          ]
        ]
      },
      "properties": {
        "ISO3": "MEX",
        "NAME": "El Tepeyac",
        "DESIG": "Parque Nacional",
        "REALM": "Terrestrial",
        "VERIF": "State Verified",
        "STATUS": "Designated",
        "NO_TAKE": "Not Applicable",
        "SITE_ID": 306792,
        "CONS_OBJ": "Not Applicable",
        "GIS_AREA": 2.49647837237665,
        "GOV_TYPE": "Federal or national ministry or agency",
        "INT_CRIT": "Not Applicable",
        "IUCN_CAT": "II",
        "NAME_ENG": "El Tepeyac",
        "OWN_TYPE": "State",
        "REP_AREA": 15,
        "SITE_PID": "306792",
        "DESIG_ENG": "National Park",
        "MANG_AUTH": "National Commission of Natural Protected Areas",
        "MANG_PLAN": "Not Reported",
        "OECM_ASMT": "Not Applicable",
        "PRNT_ISO3": "MEX",
        "SITE_TYPE": "PA",
        "STATUS_YR": 1937,
        "SUPP_INFO": "Not Applicable",
        "DESIG_TYPE": "National",
        "GIS_M_AREA": 0,
        "GOVSUBTYPE": "Not Applicable",
        "INLND_WTRS": "Not Reported",
        "METADATAID": 1850,
        "NO_TK_AREA": 0,
        "OWNSUBTYPE": "Not Applicable",
        "REP_M_AREA": 0
      }
    }
  ]
}