{
  "type": "FeatureCollection",
  "features": [
    {
      "id": "002d0000000000000c61",
      "type": "Feature",
      "geometry": {
        "type": "Polygon",
        "coordinates": [
          [
            [
              -99.19231057487623,
              18.977055624850525
            ],
            [
              -99.18477907601279,
              18.944111779840924
            ],
            [
              -99.13108258932915,
              18.896350387789617
            ],
            [
              -99.11088291432675,
              18.903877354462978
            ],
            [
              -99.11086501806099,
              18.90388622777776
            ],
            [
              -99.0940542631736,
              18.910151292740178
            ],
            [
              -99.09495496949746,
              18.917009411273053
            ],
            [
              -99.09495496949746,
              18.917022794776
            ],
            [
              -99.0966806202683,
              18.930079038165843
            ],
            [
              -99.09360391383038,
              18.953895046074994
            ],
            [
              -99.07578972876405,
              18.9525038643174
            ],
            [
              -99.04066546500782,
              18.963807648998813
            ],
            [
              -99.0406609948895,
              18.963807687903262
            ],
            [
              -99.03504697831046,
              18.965618016673297
            ],
            [
              -99.04145465569631,
              19.052289614458612
            ],
            [
              -99.04145912585939,
              19.05237880805634
            ],
            [
              -99.04319373684302,
              19.075824771774368
            ],
            [
              -99.08936775004814,
              19.08229266300659
            ],
            [
              -99.13554170026968,
              19.088760616712175
            ],
            [
              -99.13566211524997,
              19.088778443199992
            ],
            [
              -99.13588951935027,
              19.08792225764481
            ],
            [
              -99.14332285650866,
              19.05960250354973
            ],
            [
              -99.15715943008523,
              19.036709465539705
            ],
            [
              -99.15719955107642,
              19.036638116985564
            ],
            [
              -99.1649093200218,
              19.023885095768666
            ],
            [
              -99.19322464056205,
              18.981064328916766
            ],
            [
              -99.19231057487623,
              18.977055624850525
            ]
          ]
        ]
      },
      "properties": {
        "ISO3": "MEX",
        "NAME": "El Tepozteco",
        "DESIG": "Parque Nacional",
        "REALM": "Terrestrial",
        "VERIF": "State Verified",
        "STATUS": "Designated",
        "NO_TAKE": "Not Applicable",
        "SITE_ID": 5379,
        "CONS_OBJ": "Not Applicable",
        "GIS_AREA": 232.767852098859,
        "GOV_TYPE": "Federal or national ministry or agency",
        "INT_CRIT": "Not Applicable",
        "IUCN_CAT": "II",
        "NAME_ENG": "El Tepozteco",
        "OWN_TYPE": "State",
        "REP_AREA": 232.587,
        "SITE_PID": "5379",
        "DESIG_ENG": "National Park",
        "MANG_AUTH": "National Commission of Natural Protected Areas",
        "MANG_PLAN": "http://www.conanp.gob.mx/que_hacemos/pdf/programas_manejo/RESUMENtepozteco.pdf",
        "OECM_ASMT": "Not Applicable",
        "PRNT_ISO3": "MEX",
        "SITE_TYPE": "PA",
        "STATUS_YR": 1937,
        "SUPP_INFO": "Not Applicable",
        "DESIG_TYPE": "National",
        "GIS_M_AREA": 0,
        "GOVSUBTYPE": "Not Applicable",
        "INLND_WTRS": "Not Reported",
        "METADATAID": 1850,
        "NO_TK_AREA": 0,
        "OWNSUBTYPE": "Not Applicable",
        "REP_M_AREA": 0
      }
    }
  ]
}