{
  "type": "FeatureCollection",
  "features": [
    {
      "id": "002d0000000000000c42",
      "type": "Feature",
      "geometry": {
        "type": "Polygon",
        "coordinates": [
          [
            [
              -99.49189521129811,
              18.644870479856483
            ],
            [
              -99.49025426215161,
              18.652468759697765
            ],
            [
              -99.50023819549548,
              18.67738621408469
            ],
            [
              -99.50948640082379,
              18.695053187254153
            ],
            [
              -99.52629723708417,
              18.656165336486726
            ],
            [
              -99.52953452094067,
              18.629865579666756
            ],
            [
              -99.49189521129811,
              18.644870479856483
            ]
          ]
        ]
      },
      "properties": {
        "ISO3": "MEX",
        "NAME": "Grutas de Cacahuamilpa",
        "DESIG": "Parque Nacional",
        "REALM": "Terrestrial",
        "VERIF": "State Verified",
        "STATUS": "Designated",
        "NO_TAKE": "Not Applicable",
        "SITE_ID": 226,
        "CONS_OBJ": "Not Applicable",
        "GIS_AREA": 15.9942215177511,
        "GOV_TYPE": "Federal or national ministry or agency",
        "INT_CRIT": "Not Applicable",
        "IUCN_CAT": "II",
        "NAME_ENG": "Grutas de Cacahuamilpa",
        "OWN_TYPE": "State",
        "REP_AREA": 16,
        "SITE_PID": "226",
        "DESIG_ENG": "National Park",
        "MANG_AUTH": "National Commission of Natural Protected Areas",
        "MANG_PLAN": "http://www.conanp.gob.mx/que_hacemos/pdf/programas_manejo/cacahuamilpa_final.pdf",
        "OECM_ASMT": "Not Applicable",
        "PRNT_ISO3": "MEX",
        "SITE_TYPE": "PA",
        "STATUS_YR": 1936,
        "SUPP_INFO": "Not Applicable",
        "DESIG_TYPE": "National",
        "GIS_M_AREA": 0,
        "GOVSUBTYPE": "Not Applicable",
        "INLND_WTRS": "Not Reported",
        "METADATAID": 1850,
        "NO_TK_AREA": 0,
        "OWNSUBTYPE": "Not Applicable",
        "REP_M_AREA": 0
      }
    }
  ]
}