{
  "type": "FeatureCollection",
  "features": [
    {
      "id": "002d0000000000000c41",
      "type": "Feature",
      "geometry": {
        "type": "Polygon",
        "coordinates": [
          [
            [
              -101.02428760383208,
              19.624597405317363
            ],
            [
              -100.97910356560386,
              19.60147913351828
            ],
            [
              -100.9339194571197,
              19.578360986488317
            ],
            [
              -100.93956022865184,
              19.6593382230261
            ],
            [
              -101.00038455947494,
              19.665832957555033
            ],
            [
              -101.06120897725103,
              19.67232762784661
            ],
            [
              -101.02428760383208,
              19.624597405317363
            ]
          ]
        ]
      },
      "properties": {
        "ISO3": "MEX",
        "NAME": "Insurgente José María Morelos",
        "DESIG": "Parque Nacional",
        "REALM": "Terrestrial",
        "VERIF": "State Verified",
        "STATUS": "Designated",
        "NO_TAKE": "Not Applicable",
        "SITE_ID": 225,
        "CONS_OBJ": "Not Applicable",
        "GIS_AREA": 71.8903842125466,
        "GOV_TYPE": "Federal or national ministry or agency",
        "INT_CRIT": "Not Applicable",
        "IUCN_CAT": "II",
        "NAME_ENG": "Insurgente José María Morelos",
        "OWN_TYPE": "State",
        "REP_AREA": 71.91769293,
        "SITE_PID": "225",
        "DESIG_ENG": "National Park",
        "MANG_AUTH": "National Commission of Natural Protected Areas",
        "MANG_PLAN": "Not Reported",
        "OECM_ASMT": "Not Applicable",
        "PRNT_ISO3": "MEX",
        "SITE_TYPE": "PA",
        "STATUS_YR": 1939,
        "SUPP_INFO": "Not Applicable",
        "DESIG_TYPE": "National",
        "GIS_M_AREA": 0,
        "GOVSUBTYPE": "Not Applicable",
        "INLND_WTRS": "Not Reported",
        "METADATAID": 1850,
        "NO_TK_AREA": 0,
        "OWNSUBTYPE": "Not Applicable",
        "REP_M_AREA": 0
      }
    }
  ]
}