{
  "type": "FeatureCollection",
  "features": [
    {
      "id": "002d0000000000000c40",
      "type": "Feature",
      "geometry": {
        "type": "Polygon",
        "coordinates": [
          [
            [
              -99.39028125126416,
              19.29465958171575
            ],
            [
              -99.37643129955062,
              19.294240453138624
            ],
            [
              -99.37432658982486,
              19.290401109367465
            ],
            [
              -99.37788491986586,
              19.28451957824073
            ],
            [
              -99.35571872578139,
              19.268752238697623
            ],
            [
              -99.32705118391677,
              19.25587875075624
            ],
            [
              -99.35651694010367,
              19.3067035587405
            ],
            [
              -99.38106877987721,
              19.324049532681865
            ],
            [
              -99.39409373412579,
              19.29691140600083
            ],
            [
              -99.39028125126416,
              19.29465958171575
            ]
          ]
        ]
      },
      "properties": {
        "ISO3": "MEX",
        "NAME": "Insurgente Miguel Hidalgo y Costilla",
        "DESIG": "Parque Nacional",
        "REALM": "Terrestrial",
        "VERIF": "State Verified",
        "STATUS": "Designated",
        "NO_TAKE": "Not Applicable",
        "SITE_ID": 224,
        "CONS_OBJ": "Not Applicable",
        "GIS_AREA": 18.913075918963,
        "GOV_TYPE": "Federal or national ministry or agency",
        "INT_CRIT": "Not Applicable",
        "IUCN_CAT": "II",
        "NAME_ENG": "Insurgente Miguel Hidalgo y Costilla",
        "OWN_TYPE": "State",
        "REP_AREA": 18.8996563,
        "SITE_PID": "224",
        "DESIG_ENG": "National Park",
        "MANG_AUTH": "National Commission of Natural Protected Areas",
        "MANG_PLAN": "Not Reported",
        "OECM_ASMT": "Not Applicable",
        "PRNT_ISO3": "MEX",
        "SITE_TYPE": "PA",
        "STATUS_YR": 1936,
        "SUPP_INFO": "Not Applicable",
        "DESIG_TYPE": "National",
        "GIS_M_AREA": 0,
        "GOVSUBTYPE": "Not Applicable",
        "INLND_WTRS": "Not Reported",
        "METADATAID": 1850,
        "NO_TK_AREA": 0,
        "OWNSUBTYPE": "Not Applicable",
        "REP_M_AREA": 0
      }
    }
  ]
}