{
  "type": "FeatureCollection",
  "features": [
    {
      "id": "002d000000000000117f",
      "type": "Feature",
      "geometry": {
        "type": "Polygon",
        "coordinates": [
          [
            [
              -105.11934322755874,
              19.542995798107437
            ],
            [
              -105.0918394829043,
              19.51383333991671
            ],
            [
              -105.07516691074977,
              19.52716154825146
            ],
            [
              -105.10267062097574,
              19.5563263269007
            ],
            [
              -105.13017430695072,
              19.58549104648849
            ],
            [
              -105.14684693502691,
              19.572158380020976
            ],
            [
              -105.11934322755874,
              19.542995798107437
            ]
          ]
        ]
      },
      "properties": {
        "ISO3": "MEX",
        "NAME": "Islas La Pajarera, Cocinas, Mamut, Colorada, San Pedro, San Agustín, San Andrés y Negrita y los Islotes Los Anegados, Novillas, Mosca y Submarino",
        "DESIG": "Santuario",
        "REALM": "Marine",
        "VERIF": "State Verified",
        "STATUS": "Designated",
        "NO_TAKE": "Not Reported",
        "SITE_ID": 107697,
        "CONS_OBJ": "Not Applicable",
        "GIS_AREA": 19.8134304232551,
        "GOV_TYPE": "Federal or national ministry or agency",
        "INT_CRIT": "Not Applicable",
        "IUCN_CAT": "II",
        "NAME_ENG": "Islas La Pajarera, Cocinas, Mamut, Colorada, San Pedro, San Agustín, San Andrés y Negrita y los Islotes Los Anegados, Novillas, Mosca y Submarino",
        "OWN_TYPE": "State",
        "REP_AREA": 19.8143932,
        "SITE_PID": "107697",
        "DESIG_ENG": "Sanctuary",
        "MANG_AUTH": "National Commission of Natural Protected Areas",
        "MANG_PLAN": "http://www.conanp.gob.mx/que_hacemos/pdf/programas_manejo/PMChamela.pdf",
        "OECM_ASMT": "Not Applicable",
        "PRNT_ISO3": "MEX",
        "SITE_TYPE": "PA",
        "STATUS_YR": 2002,
        "SUPP_INFO": "Not Applicable",
        "DESIG_TYPE": "National",
        "GIS_M_AREA": 18.0272914593997,
        "GOVSUBTYPE": "Not Applicable",
        "INLND_WTRS": "Not Applicable",
        "METADATAID": 1850,
        "NO_TK_AREA": 0,
        "OWNSUBTYPE": "Not Applicable",
        "REP_M_AREA": 0
      }
    }
  ]
}