{
  "type": "FeatureCollection",
  "features": [
    {
      "id": "002d0000000000000566",
      "type": "Feature",
      "geometry": {
        "type": "Polygon",
        "coordinates": [
          [
            [
              -118.59583295972877,
              28.667779144321685
            ],
            [
              -118.5572912027054,
              28.66777918064162
            ],
            [
              -118.51874954506033,
              28.66777916228982
            ],
            [
              -118.48020786101293,
              28.667779139295995
            ],
            [
              -118.44166620287336,
              28.667779202396265
            ],
            [
              -118.40312453381574,
              28.667779136548482
            ],
            [
              -118.36458281694081,
              28.66777913423687
            ],
            [
              -118.32604110446222,
              28.667779204623837
            ],
            [
              -118.28749944860266,
              28.667779193697097
            ],
            [
              -118.24895781236745,
              28.667779130759435
            ],
            [
              -118.21041606944422,
              28.667779146840726
            ],
            [
              -118.17187445043352,
              28.667779129038863
            ],
            [
              -118.13333273967527,
              28.667779146800093
            ],
            [
              -118.0947910785026,
              28.667779189005437
            ],
            [
              -118.05624934036163,
              28.667779141352373
            ],
            [
              -118.0177076665844,
              28.667779156148093
            ],
            [
              -118.0177076665844,
              29.384428086129383
            ],
            [
              -118.05624934036163,
              29.384429210808047
            ],
            [
              -118.0947910785026,
              29.384430248650876
            ],
            [
              -118.13333273967527,
              29.384431373743194
            ],
            [
              -118.17187445043352,
              29.384432536206308
            ],
            [
              -118.21041606944422,
              29.38443366607719
            ],
            [
              -118.24895781236745,
              29.384434774203456
            ],
            [
              -118.28749944860266,
              29.384435892416633
            ],
            [
              -118.32604110446222,
              29.384436970602607
            ],
            [
              -118.36458281694081,
              29.384438060265364
            ],
            [
              -118.40312453381574,
              29.38443923336745
            ],
            [
              -118.44166620287336,
              29.38444031828433
            ],
            [
              -118.48020786101293,
              29.384441447576535
            ],
            [
              -118.51874954506033,
              29.38444251014379
            ],
            [
              -118.5572912027054,
              29.384443658986857
            ],
            [
              -118.59583295972877,
              29.384444762174187
            ],
            [
              -118.63437458567299,
              29.38444593295712
            ],
            [
              -118.63437458567299,
              28.667779166379955
            ],
            [
              -118.59583295972877,
              28.667779144321685
            ]
          ]
        ]
      },
      "properties": {
        "ISO3": "MEX",
        "NAME": "Isla Guadalupe",
        "DESIG": "Reserva de la Biósfera",
        "REALM": "Marine",
        "VERIF": "State Verified",
        "STATUS": "Designated",
        "NO_TAKE": "Not Reported",
        "SITE_ID": 342345,
        "CONS_OBJ": "Not Applicable",
        "GIS_AREA": 4771.60911459192,
        "GOV_TYPE": "Federal or national ministry or agency",
        "INT_CRIT": "Not Applicable",
        "IUCN_CAT": "VI",
        "NAME_ENG": "Isla Guadalupe",
        "OWN_TYPE": "State",
        "REP_AREA": 4769.71201579,
        "SITE_PID": "342345",
        "DESIG_ENG": "Biosphere Reserve",
        "MANG_AUTH": "National Commission of Natural Protected Areas",
        "MANG_PLAN": "http://www.conanp.gob.mx/que_hacemos/pdf/programas_manejo/Isla_Guadalupe_2013.pdf",
        "OECM_ASMT": "Not Applicable",
        "PRNT_ISO3": "MEX",
        "SITE_TYPE": "PA",
        "STATUS_YR": 2005,
        "SUPP_INFO": "Not Applicable",
        "DESIG_TYPE": "National",
        "GIS_M_AREA": 4525.73569887115,
        "GOVSUBTYPE": "Not Applicable",
        "INLND_WTRS": "Not Applicable",
        "METADATAID": 1850,
        "NO_TK_AREA": 0,
        "OWNSUBTYPE": "Not Applicable",
        "REP_M_AREA": 4506.94229
      }
    }
  ]
}