{
  "type": "FeatureCollection",
  "features": [
    {
      "id": "00320000000000000b01",
      "type": "Feature",
      "geometry": {
        "type": "Polygon",
        "coordinates": [
          [
            [
              -86.81055075997332,
              21.483230915620585
            ],
            [
              -86.7950598105881,
              21.42155270040634
            ],
            [
              -86.76074258719132,
              21.42919557495983
            ],
            [
              -86.77623570317864,
              21.490871656916994
            ],
            [
              -86.79172888252258,
              21.552547712959218
            ],
            [
              -86.80340276472838,
              21.54994805329439
            ],
            [
              -86.82604168098813,
              21.54490920567993
            ],
            [
              -86.81055075997332,
              21.483230915620585
            ]
          ]
        ]
      },
      "properties": {
        "ISO3": "MEX",
        "NAME": "Isla Contoy",
        "DESIG": "Parque Nacional",
        "REALM": "Marine",
        "VERIF": "State Verified",
        "STATUS": "Designated",
        "NO_TAKE": "Not Reported",
        "SITE_ID": 12884,
        "CONS_OBJ": "Not Applicable",
        "GIS_AREA": 51.2869433065239,
        "GOV_TYPE": "Federal or national ministry or agency",
        "INT_CRIT": "Not Applicable",
        "IUCN_CAT": "II",
        "NAME_ENG": "Isla Contoy",
        "OWN_TYPE": "State",
        "REP_AREA": 51.262595,
        "SITE_PID": "12884",
        "DESIG_ENG": "National Park",
        "MANG_AUTH": "National Commission of Natural Protected Areas",
        "MANG_PLAN": "http://www.conanp.gob.mx/que_hacemos/pdf/programas_manejo/contoy.pdf",
        "OECM_ASMT": "Not Applicable",
        "PRNT_ISO3": "MEX",
        "SITE_TYPE": "PA",
        "STATUS_YR": 1998,
        "SUPP_INFO": "Not Applicable",
        "DESIG_TYPE": "National",
        "GIS_M_AREA": 48.7589281897789,
        "GOVSUBTYPE": "Not Applicable",
        "INLND_WTRS": "Not Applicable",
        "METADATAID": 1850,
        "NO_TK_AREA": 0,
        "OWNSUBTYPE": "Not Applicable",
        "REP_M_AREA": 48.9626
      }
    }
  ]
}