{
  "type": "FeatureCollection",
  "features": [
    {
      "id": "002e0000000000001cb7",
      "type": "Feature",
      "geometry": {
        "type": "Polygon",
        "coordinates": [
          [
            [
              -112.3507063940101,
              28.300241149694727
            ],
            [
              -112.3090349516139,
              28.300239966417912
            ],
            [
              -112.26736353781217,
              28.300238863736457
            ],
            [
              -112.22569212618878,
              28.300237779698016
            ],
            [
              -112.22569212618876,
              28.466905598920306
            ],
            [
              -112.26736353781217,
              28.466906698112748
            ],
            [
              -112.3090349516139,
              28.466907825116774
            ],
            [
              -112.3507063940101,
              28.46690895726197
            ],
            [
              -112.39237780047898,
              28.466910003056118
            ],
            [
              -112.39237780047898,
              28.300242237440727
            ],
            [
              -112.3507063940101,
              28.300241149694727
            ]
          ]
        ]
      },
      "properties": {
        "ISO3": "MEX",
        "NAME": "Isla San Pedro Mártir",
        "DESIG": "Sitio Ramsar, Humedal de Importancia Internacional",
        "REALM": "Marine",
        "VERIF": "State Verified",
        "STATUS": "Designated",
        "NO_TAKE": "Not Reported",
        "SITE_ID": 902310,
        "CONS_OBJ": "Not Applicable",
        "GIS_AREA": 301.771061460414,
        "GOV_TYPE": "Not Reported",
        "INT_CRIT": "(iii);(iv);(v)",
        "IUCN_CAT": "Not Reported",
        "NAME_ENG": "Isla San Pedro Mártir",
        "OWN_TYPE": "Not Reported",
        "REP_AREA": 301.65,
        "SITE_PID": "902310",
        "DESIG_ENG": "Wetland of International Importance (Ramsar Site)",
        "MANG_AUTH": "Not Reported",
        "MANG_PLAN": "Not Reported",
        "OECM_ASMT": "Not Applicable",
        "PRNT_ISO3": "MEX",
        "SITE_TYPE": "PA",
        "STATUS_YR": 2004,
        "SUPP_INFO": "Not Applicable",
        "DESIG_TYPE": "International",
        "GIS_M_AREA": 299.031930454098,
        "GOVSUBTYPE": "Not Applicable",
        "INLND_WTRS": "Not Applicable",
        "METADATAID": 1856,
        "NO_TK_AREA": 0,
        "OWNSUBTYPE": "Not Applicable",
        "REP_M_AREA": 0
      }
    }
  ]
}