{
  "type": "FeatureCollection",
  "features": [
    {
      "id": "00320000000000000d60",
      "type": "Feature",
      "geometry": {
        "type": "MultiPolygon",
        "coordinates": [
          [
            [
              [
                -87.51300181612643,
                20.3182774618478
              ],
              [
                -87.50768662143511,
                20.331984713368175
              ],
              [
                -87.48063765162067,
                20.333117277143995
              ],
              [
                -87.47984397376437,
                20.35391009134321
              ],
              [
                -87.4932613784459,
                20.36222634094934
              ],
              [
                -87.49290464368798,
                20.36972656873608
              ],
              [
                -87.52541154253896,
                20.36976219615506
              ],
              [
                -87.5260358206716,
                20.34162530419491
              ],
              [
                -87.52627213992842,
                20.329117547074087
              ],
              [
                -87.51300181612643,
                20.3182774618478
              ]
            ]
          ],
          [
            [
              [
                -87.45253195023498,
                20.232961443893412
              ],
              [
                -87.45272374107302,
                20.232872293491724
              ],
              [
                -87.45290653507031,
                20.232783103831455
              ],
              [
                -87.45319191300754,
                20.2326403520922
              ],
              [
                -87.45365123549942,
                20.23239511144489
              ],
              [
                -87.45389200756651,
                20.232261342728222
              ],
              [
                -87.45413277838189,
                20.232123123016095
              ],
              [
                -87.45417291932858,
                20.232100813178107
              ],
              [
                -87.45419075973818,
                20.232087446179516
              ],
              [
                -87.45213067617675,
                20.227325164956852
              ],
              [
                -87.45116300778098,
                20.227632816827608
              ],
              [
                -87.44908509839385,
                20.22828382793397
              ],
              [
                -87.45069481533916,
                20.231828885100693
              ],
              [
                -87.45033366964002,
                20.231605859283484
              ],
              [
                -87.44885768318738,
                20.228355201786098
              ],
              [
                -87.44634273528256,
                20.22914446011127
              ],
              [
                -87.43886928972668,
                20.2245381835873
              ],
              [
                -87.43306350790691,
                20.220921855163077
              ],
              [
                -87.43180607634206,
                20.2213187363513
              ],
              [
                -87.43100346837598,
                20.221675451858232
              ],
              [
                -87.43028548097642,
                20.222090162161212
              ],
              [
                -87.42924209909685,
                20.22294627255402
              ],
              [
                -87.42849738463993,
                20.22380245908641
              ],
              [
                -87.42785529897128,
                20.224836978475143
              ],
              [
                -87.42563466845226,
                20.228435419317215
              ],
              [
                -87.42666920594523,
                20.2290061895094
              ],
              [
                -87.44189701325384,
                20.237358115232645
              ],
              [
                -87.44414884891479,
                20.23377302847491
              ],
              [
                -87.45246066159726,
                20.238334709833257
              ],
              [
                -87.45492651945739,
                20.23443737168695
              ],
              [
                -87.45253195023498,
                20.232961443893412
              ]
            ]
          ]
        ]
      },
      "properties": {
        "ISO3": "MEX",
        "NAME": "Jaguar",
        "DESIG": "Área de Protección de Flora y Fauna",
        "REALM": "Terrestrial",
        "VERIF": "State Verified",
        "STATUS": "Designated",
        "NO_TAKE": "None",
        "SITE_ID": 555783764,
        "CONS_OBJ": "Not Applicable",
        "GIS_AREA": 22.5135165902248,
        "GOV_TYPE": "Federal or national ministry or agency",
        "INT_CRIT": "Not Applicable",
        "IUCN_CAT": "VI",
        "NAME_ENG": "Jaguar",
        "OWN_TYPE": "State",
        "REP_AREA": 22.4971043,
        "SITE_PID": "555783764",
        "DESIG_ENG": "Flora and Fauna Protection Area",
        "MANG_AUTH": "National Commission of Natural Protected Areas",
        "MANG_PLAN": "Not Reported",
        "OECM_ASMT": "Not Applicable",
        "PRNT_ISO3": "MEX",
        "SITE_TYPE": "PA",
        "STATUS_YR": 2022,
        "SUPP_INFO": "Not Applicable",
        "DESIG_TYPE": "National",
        "GIS_M_AREA": 0,
        "GOVSUBTYPE": "Not Applicable",
        "INLND_WTRS": "Not Reported",
        "METADATAID": 1850,
        "NO_TK_AREA": 0,
        "OWNSUBTYPE": "Not Applicable",
        "REP_M_AREA": 0
      }
    }
  ]
}