{
  "type": "FeatureCollection",
  "features": [
    {
      "id": "002e000000000000162b",
      "type": "Feature",
      "geometry": {
        "type": "Polygon",
        "coordinates": [
          [
            [
              -104.35042474486511,
              23.417049472688767
            ],
            [
              -104.2865882464486,
              23.417053866223622
            ],
            [
              -104.25042493569293,
              23.417053933618444
            ],
            [
              -104.25042937155767,
              23.500376631335307
            ],
            [
              -104.30042925961368,
              23.500372177029558
            ],
            [
              -104.35042918379223,
              23.500367751005083
            ],
            [
              -104.35042474486511,
              23.417049472688767
            ]
          ]
        ]
      },
      "properties": {
        "ISO3": "MEX",
        "NAME": "La Michilía",
        "DESIG": "UNESCO-MAB Biosphere Reserve",
        "REALM": "Terrestrial",
        "VERIF": "State Verified",
        "STATUS": "Designated",
        "NO_TAKE": "Not Applicable",
        "SITE_ID": 229,
        "CONS_OBJ": "Not Applicable",
        "GIS_AREA": 94.2846511179144,
        "GOV_TYPE": "Federal or national ministry or agency",
        "INT_CRIT": "Not Applicable",
        "IUCN_CAT": "Not Applicable",
        "NAME_ENG": "La Michilía",
        "OWN_TYPE": "Not Reported",
        "REP_AREA": 350,
        "SITE_PID": "229",
        "DESIG_ENG": "UNESCO-MAB Biosphere Reserve",
        "MANG_AUTH": "Ministry of the Environment and Natural Resources through the National Commission of Natural Protected Areas",
        "MANG_PLAN": "Not Reported",
        "OECM_ASMT": "Not Applicable",
        "PRNT_ISO3": "MEX",
        "SITE_TYPE": "PA",
        "STATUS_YR": 1977,
        "SUPP_INFO": "Not Applicable",
        "DESIG_TYPE": "International",
        "GIS_M_AREA": 0,
        "GOVSUBTYPE": "Not Applicable",
        "INLND_WTRS": "Not Reported",
        "METADATAID": 1850,
        "NO_TK_AREA": 0,
        "OWNSUBTYPE": "Not Applicable",
        "REP_M_AREA": 0
      }
    }
  ]
}