{
  "type": "FeatureCollection",
  "features": [
    {
      "id": "002d0000000000000c36",
      "type": "Feature",
      "geometry": {
        "type": "Polygon",
        "coordinates": [
          [
            [
              -98.1601044670647,
              19.219207147231852
            ],
            [
              -98.14049331444218,
              19.175093274692795
            ],
            [
              -98.104664464764,
              19.15065293275766
            ],
            [
              -98.10388412259724,
              19.149930511919305
            ],
            [
              -98.05948482237312,
              19.12954348825039
            ],
            [
              -98.0150855847902,
              19.109156497719077
            ],
            [
              -97.98739009004318,
              19.116571985633026
            ],
            [
              -97.93586075189889,
              19.16071263326333
            ],
            [
              -97.92633607768896,
              19.208804080325596
            ],
            [
              -97.92604172936646,
              19.245283903576073
            ],
            [
              -97.94775312096262,
              19.267940625221797
            ],
            [
              -97.95816956107468,
              19.29868610948823
            ],
            [
              -98.01122846512807,
              19.33531316685595
            ],
            [
              -98.05148076244714,
              19.339379913744384
            ],
            [
              -98.09993780380073,
              19.31707551171729
            ],
            [
              -98.14839481077543,
              19.2947710363218
            ],
            [
              -98.16562928031978,
              19.25162474333675
            ],
            [
              -98.1601044670647,
              19.219207147231852
            ]
          ]
        ]
      },
      "properties": {
        "ISO3": "MEX",
        "NAME": "La Montaña Malinche o Matlalcuéyatl",
        "DESIG": "Parque Nacional",
        "REALM": "Terrestrial",
        "VERIF": "State Verified",
        "STATUS": "Designated",
        "NO_TAKE": "Not Applicable",
        "SITE_ID": 212,
        "CONS_OBJ": "Not Applicable",
        "GIS_AREA": 461.374030608555,
        "GOV_TYPE": "Federal or national ministry or agency",
        "INT_CRIT": "Not Applicable",
        "IUCN_CAT": "II",
        "NAME_ENG": "La Montaña Malinche o Matlalcuéyatl",
        "OWN_TYPE": "State",
        "REP_AREA": 461.12241416,
        "SITE_PID": "212",
        "DESIG_ENG": "National Park",
        "MANG_AUTH": "National Commission of Natural Protected Areas",
        "MANG_PLAN": "http://www.conanp.gob.mx/que_hacemos/pdf/programas_manejo/2014/LA_MALINCHE_2014.pdf",
        "OECM_ASMT": "Not Applicable",
        "PRNT_ISO3": "MEX",
        "SITE_TYPE": "PA",
        "STATUS_YR": 1938,
        "SUPP_INFO": "Not Applicable",
        "DESIG_TYPE": "National",
        "GIS_M_AREA": 0,
        "GOVSUBTYPE": "Not Applicable",
        "INLND_WTRS": "Not Reported",
        "METADATAID": 1850,
        "NO_TK_AREA": 0,
        "OWNSUBTYPE": "Not Applicable",
        "REP_M_AREA": 0
      }
    }
  ]
}