{
  "type": "FeatureCollection",
  "features": [
    {
      "id": "002d0000000000000c3e",
      "type": "Feature",
      "geometry": {
        "type": "Polygon",
        "coordinates": [
          [
            [
              -99.3300164526981,
              19.025838236980697
            ],
            [
              -99.32930745991165,
              19.025249649560628
            ],
            [
              -99.3187928971496,
              19.029071045643732
            ],
            [
              -99.3187840105329,
              19.029075536340404
            ],
            [
              -99.30367215776144,
              19.034555729923706
            ],
            [
              -99.2712143392658,
              19.06131929333665
            ],
            [
              -99.27116079706053,
              19.06136384787263
            ],
            [
              -99.27206602880266,
              19.094133830473037
            ],
            [
              -99.27217302985923,
              19.09808456646987
            ],
            [
              -99.27217302985923,
              19.098089057914976
            ],
            [
              -99.31834255848983,
              19.10141995198304
            ],
            [
              -99.3194929963273,
              19.10150466055719
            ],
            [
              -99.348588656523,
              19.041297949004104
            ],
            [
              -99.3300164526981,
              19.025838236980697
            ]
          ]
        ]
      },
      "properties": {
        "ISO3": "MEX",
        "NAME": "Lagunas de Zempoala",
        "DESIG": "Parque Nacional",
        "REALM": "Terrestrial",
        "VERIF": "State Verified",
        "STATUS": "Designated",
        "NO_TAKE": "Not Applicable",
        "SITE_ID": 222,
        "CONS_OBJ": "Not Applicable",
        "GIS_AREA": 45.589425804086,
        "GOV_TYPE": "Federal or national ministry or agency",
        "INT_CRIT": "Not Applicable",
        "IUCN_CAT": "II",
        "NAME_ENG": "Lagunas de Zempoala",
        "OWN_TYPE": "State",
        "REP_AREA": 47.9,
        "SITE_PID": "222",
        "DESIG_ENG": "National Park",
        "MANG_AUTH": "National Commission of Natural Protected Areas",
        "MANG_PLAN": "http://www.conanp.gob.mx/que_hacemos/pdf/programas_manejo/RESUMENzempoala.pdf",
        "OECM_ASMT": "Not Applicable",
        "PRNT_ISO3": "MEX",
        "SITE_TYPE": "PA",
        "STATUS_YR": 1947,
        "SUPP_INFO": "Not Applicable",
        "DESIG_TYPE": "National",
        "GIS_M_AREA": 0,
        "GOVSUBTYPE": "Not Applicable",
        "INLND_WTRS": "Not Reported",
        "METADATAID": 1850,
        "NO_TK_AREA": 0,
        "OWNSUBTYPE": "Not Applicable",
        "REP_M_AREA": 0
      }
    }
  ]
}