{
  "type": "FeatureCollection",
  "features": [
    {
      "id": "002d000000000000126b",
      "type": "Feature",
      "geometry": {
        "type": "Polygon",
        "coordinates": [
          [
            [
              -103.75966076141337,
              19.318957253169195
            ],
            [
              -103.7592504774307,
              19.31730731118068
            ],
            [
              -103.75878229021632,
              19.316335293735385
            ],
            [
              -103.75641450436733,
              19.31024863013269
            ],
            [
              -103.74709493612954,
              19.31365538408412
            ],
            [
              -103.74693891715296,
              19.32648860268727
            ],
            [
              -103.74715292396544,
              19.32641282999228
            ],
            [
              -103.7474472833365,
              19.326390517498957
            ],
            [
              -103.74776383087718,
              19.326488639487135
            ],
            [
              -103.74803582722494,
              19.326510935602244
            ],
            [
              -103.74847728103592,
              19.32640392633264
            ],
            [
              -103.74918180684988,
              19.32610068081369
            ],
            [
              -103.75007807157776,
              19.325980320205378
            ],
            [
              -103.75010485618645,
              19.325998169333307
            ],
            [
              -103.75038136559492,
              19.325931206947136
            ],
            [
              -103.75073805296638,
              19.325770716987098
            ],
            [
              -103.75083166698391,
              19.325726169197463
            ],
            [
              -103.75115723918934,
              19.32548536448746
            ],
            [
              -103.7516075431842,
              19.325035003064162
            ],
            [
              -103.75179044093946,
              19.32478973641017
            ],
            [
              -103.75234779885628,
              19.32433492466846
            ],
            [
              -103.75258409102447,
              19.324201132912275
            ],
            [
              -103.75322622792355,
              19.324031704155388
            ],
            [
              -103.75371225263724,
              19.32386665606362
            ],
            [
              -103.75474229846661,
              19.323402980767522
            ],
            [
              -103.75528632002737,
              19.323099735231683
            ],
            [
              -103.75583485228775,
              19.322533417805683
            ],
            [
              -103.75614249102377,
              19.322301532602104
            ],
            [
              -103.7567979937293,
              19.322007261734278
            ],
            [
              -103.75737322982722,
              19.321695056021944
            ],
            [
              -103.75781462597244,
              19.321351781036253
            ],
            [
              -103.75836758874368,
              19.32083450913564
            ],
            [
              -103.75917020654607,
              19.320468858791795
            ],
            [
              -103.75954477495024,
              19.32016559813702
            ],
            [
              -103.759696388373,
              19.31909095263369
            ],
            [
              -103.75966076141337,
              19.318957253169195
            ]
          ]
        ]
      },
      "properties": {
        "ISO3": "MEX",
        "NAME": "Las Huertas",
        "DESIG": "Área de Protección de los Recursos Naturales",
        "REALM": "Terrestrial",
        "VERIF": "State Verified",
        "STATUS": "Designated",
        "NO_TAKE": "Not Applicable",
        "SITE_ID": 306813,
        "CONS_OBJ": "Not Applicable",
        "GIS_AREA": 1.65997347324575,
        "GOV_TYPE": "Federal or national ministry or agency",
        "INT_CRIT": "Not Applicable",
        "IUCN_CAT": "VI",
        "NAME_ENG": "Las Huertas",
        "OWN_TYPE": "State",
        "REP_AREA": 1.6701,
        "SITE_PID": "306813",
        "DESIG_ENG": "Natural Resources Protection Area",
        "MANG_AUTH": "National Commission of Natural Protected Areas",
        "MANG_PLAN": "Not Reported",
        "OECM_ASMT": "Not Applicable",
        "PRNT_ISO3": "MEX",
        "SITE_TYPE": "PA",
        "STATUS_YR": 1988,
        "SUPP_INFO": "Not Applicable",
        "DESIG_TYPE": "National",
        "GIS_M_AREA": 0,
        "GOVSUBTYPE": "Not Applicable",
        "INLND_WTRS": "Not Reported",
        "METADATAID": 1850,
        "NO_TK_AREA": 0,
        "OWNSUBTYPE": "Not Applicable",
        "REP_M_AREA": 0
      }
    }
  ]
}