{
  "type": "FeatureCollection",
  "features": [
    {
      "id": "002d000000000000126e",
      "type": "Feature",
      "geometry": {
        "type": "Polygon",
        "coordinates": [
          [
            [
              -99.26242991562408,
              19.47268919687552
            ],
            [
              -99.25838104006871,
              19.461398722892074
            ],
            [
              -99.23932730446263,
              19.473023646732138
            ],
            [
              -99.24795117559191,
              19.481018769014813
            ],
            [
              -99.25803768065339,
              19.483783414929682
            ],
            [
              -99.2694975383436,
              19.48110797628707
            ],
            [
              -99.26242991562408,
              19.47268919687552
            ]
          ]
        ]
      },
      "properties": {
        "ISO3": "MEX",
        "NAME": "Los Remedios",
        "DESIG": "Parque Nacional",
        "REALM": "Terrestrial",
        "VERIF": "State Verified",
        "STATUS": "Designated",
        "NO_TAKE": "Not Applicable",
        "SITE_ID": 306817,
        "CONS_OBJ": "Not Applicable",
        "GIS_AREA": 4.00482091315194,
        "GOV_TYPE": "Federal or national ministry or agency",
        "INT_CRIT": "Not Applicable",
        "IUCN_CAT": "II",
        "NAME_ENG": "Los Remedios",
        "OWN_TYPE": "State",
        "REP_AREA": 4.00163196,
        "SITE_PID": "306817",
        "DESIG_ENG": "National Park",
        "MANG_AUTH": "National Commission of Natural Protected Areas",
        "MANG_PLAN": "Not Reported",
        "OECM_ASMT": "Not Applicable",
        "PRNT_ISO3": "MEX",
        "SITE_TYPE": "PA",
        "STATUS_YR": 1938,
        "SUPP_INFO": "Not Applicable",
        "DESIG_TYPE": "National",
        "GIS_M_AREA": 0,
        "GOVSUBTYPE": "Not Applicable",
        "INLND_WTRS": "Not Reported",
        "METADATAID": 1850,
        "NO_TK_AREA": 0,
        "OWNSUBTYPE": "Not Applicable",
        "REP_M_AREA": 0
      }
    }
  ]
}