{
  "type": "FeatureCollection",
  "features": [
    {
      "id": "002e0000000000001c99",
      "type": "Feature",
      "geometry": {
        "type": "Polygon",
        "coordinates": [
          [
            [
              -100.96712189799055,
              29.251685058788503
            ],
            [
              -100.96639065752294,
              29.250311696291003
            ],
            [
              -100.96548541023301,
              29.251069744138675
            ],
            [
              -100.96258700344694,
              29.25349989043196
            ],
            [
              -100.9617531876973,
              29.256010402008314
            ],
            [
              -100.96173533877335,
              29.256768405764078
            ],
            [
              -100.96225261400647,
              29.259528601012004
            ],
            [
              -100.9627966225891,
              29.260411511458862
            ],
            [
              -100.96520455938396,
              29.26231557736697
            ],
            [
              -100.96679197677888,
              29.26015287639765
            ],
            [
              -100.96597597421781,
              29.259069300793023
            ],
            [
              -100.96569951967594,
              29.25801695089374
            ],
            [
              -100.96553447514174,
              29.256915639927673
            ],
            [
              -100.96595812450876,
              29.25567148131497
            ],
            [
              -100.96653776748092,
              29.25471726554191
            ],
            [
              -100.9670684344658,
              29.253299301031458
            ],
            [
              -100.96740732473107,
              29.252345000239615
            ],
            [
              -100.96712189799055,
              29.251685058788503
            ]
          ]
        ]
      },
      "properties": {
        "ISO3": "MEX",
        "NAME": "Los Novillos",
        "DESIG": "Parque Nacional",
        "REALM": "Terrestrial",
        "VERIF": "State Verified",
        "STATUS": "Designated",
        "NO_TAKE": "Not Applicable",
        "SITE_ID": 306815,
        "CONS_OBJ": "Not Applicable",
        "GIS_AREA": 0.42563411076524,
        "GOV_TYPE": "Federal or national ministry or agency",
        "INT_CRIT": "Not Applicable",
        "IUCN_CAT": "II",
        "NAME_ENG": "Los Novillos",
        "OWN_TYPE": "State",
        "REP_AREA": 0.38214086,
        "SITE_PID": "306815",
        "DESIG_ENG": "National Park",
        "MANG_AUTH": "National Commission of Natural Protected Areas",
        "MANG_PLAN": "Not Reported",
        "OECM_ASMT": "Not Applicable",
        "PRNT_ISO3": "MEX",
        "SITE_TYPE": "PA",
        "STATUS_YR": 1940,
        "SUPP_INFO": "Not Applicable",
        "DESIG_TYPE": "National",
        "GIS_M_AREA": 0,
        "GOVSUBTYPE": "Not Applicable",
        "INLND_WTRS": "Not Reported",
        "METADATAID": 1850,
        "NO_TK_AREA": 0,
        "OWNSUBTYPE": "Not Applicable",
        "REP_M_AREA": 0
      }
    }
  ]
}