{
  "type": "FeatureCollection",
  "features": [
    {
      "id": "002d000000000000126d",
      "type": "Feature",
      "geometry": {
        "type": "Polygon",
        "coordinates": [
          [
            [
              -90.75072613718018,
              19.86480467715269
            ],
            [
              -90.6710977200163,
              19.863765701094604
            ],
            [
              -90.59146931462307,
              19.86272675670831
            ],
            [
              -90.51184095761762,
              19.861687759802734
            ],
            [
              -90.50694928927346,
              19.866236101806454
            ],
            [
              -90.44923960802853,
              19.898390618224834
            ],
            [
              -90.39152992376262,
              19.93054523603097
            ],
            [
              -90.35315489664359,
              19.978128271583707
            ],
            [
              -90.35183057033221,
              20.05902082391098
            ],
            [
              -90.36044110626395,
              20.11329703861701
            ],
            [
              -90.35998624405082,
              20.140412764972737
            ],
            [
              -90.33356158648397,
              20.16465694559819
            ],
            [
              -90.3325895552191,
              20.20319248740388
            ],
            [
              -90.34889201080047,
              20.230491143202812
            ],
            [
              -90.34795556621191,
              20.29360970745392
            ],
            [
              -90.32827760108451,
              20.32046685507966
            ],
            [
              -90.32636460604087,
              20.428805181336223
            ],
            [
              -90.33489936197492,
              20.492119957847038
            ],
            [
              -90.33519367727834,
              20.527832878688148
            ],
            [
              -90.34557887491258,
              20.530249757214815
            ],
            [
              -90.41894228909827,
              20.53133993659041
            ],
            [
              -90.49230564216047,
              20.532430251687625
            ],
            [
              -90.52038458507094,
              20.532844913238137
            ],
            [
              -90.56799442666266,
              20.533497046838324
            ],
            [
              -90.61560423119391,
              20.53414917809907
            ],
            [
              -90.66321401589259,
              20.53480130552227
            ],
            [
              -90.71082387207034,
              20.535453518172467
            ],
            [
              -90.71599645693667,
              20.48409801274996
            ],
            [
              -90.71413251971018,
              20.438980805550557
            ],
            [
              -90.7076400976375,
              20.394175820742024
            ],
            [
              -90.71213927096511,
              20.34931725799732
            ],
            [
              -90.70615069888794,
              20.304726223511015
            ],
            [
              -90.7042110134225,
              20.259662590290283
            ],
            [
              -90.70288218321916,
              20.21450073042467
            ],
            [
              -90.70813053913847,
              20.169610982636968
            ],
            [
              -90.69264409159722,
              20.11302051349127
            ],
            [
              -90.70664568605095,
              20.079795819063442
            ],
            [
              -90.7054372413353,
              20.03467857339007
            ],
            [
              -90.6967019061674,
              19.98933847213572
            ],
            [
              -90.73414494712519,
              19.96346228318812
            ],
            [
              -90.77249322883951,
              19.936382223465902
            ],
            [
              -90.80433119141982,
              19.902773898940097
            ],
            [
              -90.8303545412634,
              19.865843677950785
            ],
            [
              -90.75072613718018,
              19.86480467715269
            ]
          ]
        ]
      },
      "properties": {
        "ISO3": "MEX",
        "NAME": "Los Petenes",
        "DESIG": "Reserva de la Biósfera",
        "REALM": "Coastal",
        "VERIF": "State Verified",
        "STATUS": "Designated",
        "NO_TAKE": "Not Reported",
        "SITE_ID": 306816,
        "CONS_OBJ": "Not Applicable",
        "GIS_AREA": 2826.30921088829,
        "GOV_TYPE": "Federal or national ministry or agency",
        "INT_CRIT": "Not Applicable",
        "IUCN_CAT": "Ia",
        "NAME_ENG": "Los Petenes",
        "OWN_TYPE": "State",
        "REP_AREA": 2828.5762706,
        "SITE_PID": "306816",
        "DESIG_ENG": "Biosphere Reserve",
        "MANG_AUTH": "National Commission of Natural Protected Areas",
        "MANG_PLAN": "http://www.conanp.gob.mx/que_hacemos/pdf/programas_manejo/petenes_final.pdf",
        "OECM_ASMT": "Not Applicable",
        "PRNT_ISO3": "MEX",
        "SITE_TYPE": "PA",
        "STATUS_YR": 1999,
        "SUPP_INFO": "Not Applicable",
        "DESIG_TYPE": "National",
        "GIS_M_AREA": 1818.53743266371,
        "GOVSUBTYPE": "Not Applicable",
        "INLND_WTRS": "Not Reported",
        "METADATAID": 1850,
        "NO_TK_AREA": 0,
        "OWNSUBTYPE": "Not Applicable",
        "REP_M_AREA": 0
      }
    }
  ]
}