{
  "type": "FeatureCollection",
  "features": [
    {
      "id": "002d0000000000001271",
      "type": "Feature",
      "geometry": {
        "type": "Polygon",
        "coordinates": [
          [
            [
              -98.84011289106915,
              19.50999399658445
            ],
            [
              -98.83448552143656,
              19.512348402879685
            ],
            [
              -98.83587672101315,
              19.51452003681044
            ],
            [
              -98.83465939899226,
              19.515701636885133
            ],
            [
              -98.83719660865638,
              19.516410683314138
            ],
            [
              -98.83863244303471,
              19.516901214003262
            ],
            [
              -98.84249850920803,
              19.51789552549181
            ],
            [
              -98.84276158199046,
              19.517092875052807
            ],
            [
              -98.8415085659695,
              19.516468610479215
            ],
            [
              -98.8409333833529,
              19.51600938924712
            ],
            [
              -98.84002817550237,
              19.51443972682357
            ],
            [
              -98.84006384520346,
              19.514417462185786
            ],
            [
              -98.83990779038191,
              19.513984957229933
            ],
            [
              -98.84007276263128,
              19.51399379745448
            ],
            [
              -98.84028232247951,
              19.51400720348078
            ],
            [
              -98.8408397493759,
              19.514033991041607
            ],
            [
              -98.84148627199043,
              19.51406964197624
            ],
            [
              -98.84390760370053,
              19.514511051344495
            ],
            [
              -98.84441592382753,
              19.514524484154787
            ],
            [
              -98.84493762425221,
              19.513690632212885
            ],
            [
              -98.84011289106915,
              19.50999399658445
            ]
          ]
        ]
      },
      "properties": {
        "ISO3": "MEX",
        "NAME": "Molino de Flores Netzahualcóyotl",
        "DESIG": "Parque Nacional",
        "REALM": "Terrestrial",
        "VERIF": "State Verified",
        "STATUS": "Designated",
        "NO_TAKE": "Not Applicable",
        "SITE_ID": 306822,
        "CONS_OBJ": "Not Applicable",
        "GIS_AREA": 0.493120536939936,
        "GOV_TYPE": "Federal or national ministry or agency",
        "INT_CRIT": "Not Applicable",
        "IUCN_CAT": "II",
        "NAME_ENG": "Molino de Flores Netzahualcóyotl",
        "OWN_TYPE": "State",
        "REP_AREA": 0.45662124,
        "SITE_PID": "306822",
        "DESIG_ENG": "National Park",
        "MANG_AUTH": "National Commission of Natural Protected Areas",
        "MANG_PLAN": "Not Reported",
        "OECM_ASMT": "Not Applicable",
        "PRNT_ISO3": "MEX",
        "SITE_TYPE": "PA",
        "STATUS_YR": 1937,
        "SUPP_INFO": "Not Applicable",
        "DESIG_TYPE": "National",
        "GIS_M_AREA": 0,
        "GOVSUBTYPE": "Not Applicable",
        "INLND_WTRS": "Not Reported",
        "METADATAID": 1850,
        "NO_TK_AREA": 0,
        "OWNSUBTYPE": "Not Applicable",
        "REP_M_AREA": 0
      }
    }
  ]
}