{
  "type": "FeatureCollection",
  "features": [
    {
      "id": "00320000000000001151",
      "type": "Feature",
      "geometry": {
        "type": "Polygon",
        "coordinates": [
          [
            [
              -87.65999166060915,
              20.60710230146199
            ],
            [
              -87.62492078403321,
              20.654382214475127
            ],
            [
              -87.63929253477083,
              20.661882382927175
            ],
            [
              -87.63960913348006,
              20.73741956970473
            ],
            [
              -87.65997826483878,
              20.75333405824656
            ],
            [
              -87.66554770612936,
              20.747474839109735
            ],
            [
              -87.6833082534461,
              20.65669642414471
            ],
            [
              -87.65999166060915,
              20.60710230146199
            ]
          ]
        ]
      },
      "properties": {
        "ISO3": "MEX",
        "NAME": "Otoch Ma'ax Yetel Kooh",
        "DESIG": "Área de Protección de Flora y Fauna",
        "REALM": "Terrestrial",
        "VERIF": "State Verified",
        "STATUS": "Designated",
        "NO_TAKE": "Not Applicable",
        "SITE_ID": 306824,
        "CONS_OBJ": "Not Applicable",
        "GIS_AREA": 53.7214134546182,
        "GOV_TYPE": "Federal or national ministry or agency",
        "INT_CRIT": "Not Applicable",
        "IUCN_CAT": "VI",
        "NAME_ENG": "Otoch Ma'ax Yetel Kooh",
        "OWN_TYPE": "State",
        "REP_AREA": 53.674235,
        "SITE_PID": "306824",
        "DESIG_ENG": "Flora and Fauna Protection Area",
        "MANG_AUTH": "National Commission of Natural Protected Areas",
        "MANG_PLAN": "http://www.conanp.gob.mx/que_hacemos/pdf/programas_manejo/otoch.pdf",
        "OECM_ASMT": "Not Applicable",
        "PRNT_ISO3": "MEX",
        "SITE_TYPE": "PA",
        "STATUS_YR": 2002,
        "SUPP_INFO": "Not Applicable",
        "DESIG_TYPE": "National",
        "GIS_M_AREA": 0,
        "GOVSUBTYPE": "Not Applicable",
        "INLND_WTRS": "Not Reported",
        "METADATAID": 1850,
        "NO_TK_AREA": 0,
        "OWNSUBTYPE": "Not Applicable",
        "REP_M_AREA": 0
      }
    }
  ]
}