{
  "type": "FeatureCollection",
  "features": [
    {
      "id": "002d00000000000000a2",
      "type": "Feature",
      "geometry": {
        "type": "Polygon",
        "coordinates": [
          [
            [
              -102.38187203555628,
              19.390855752049696
            ],
            [
              -102.3616834978736,
              19.346465451602313
            ],
            [
              -102.35352332996456,
              19.346260297800235
            ],
            [
              -102.35365267285647,
              19.341836893825874
            ],
            [
              -102.28816181033172,
              19.36101103553694
            ],
            [
              -102.2544064459109,
              19.40320966626471
            ],
            [
              -102.22065105266084,
              19.445408424695092
            ],
            [
              -102.26381070942602,
              19.498699104460663
            ],
            [
              -102.30391587977999,
              19.509048727097284
            ],
            [
              -102.3440209681257,
              19.519398274586322
            ],
            [
              -102.37304084707897,
              19.477322205334094
            ],
            [
              -102.40206069671494,
              19.435246070016277
            ],
            [
              -102.38187203555628,
              19.390855752049696
            ]
          ]
        ]
      },
      "properties": {
        "ISO3": "MEX",
        "NAME": "Pico de Tancítaro",
        "DESIG": "Área de Protección de Flora y Fauna",
        "REALM": "Terrestrial",
        "VERIF": "State Verified",
        "STATUS": "Designated",
        "NO_TAKE": "Not Applicable",
        "SITE_ID": 555587200,
        "CONS_OBJ": "Not Applicable",
        "GIS_AREA": 233.764873253211,
        "GOV_TYPE": "Federal or national ministry or agency",
        "INT_CRIT": "Not Applicable",
        "IUCN_CAT": "Ia",
        "NAME_ENG": "Pico de Tancítaro",
        "OWN_TYPE": "State",
        "REP_AREA": 234.05920955,
        "SITE_PID": "555587200",
        "DESIG_ENG": "Flora and Fauna Protection Area",
        "MANG_AUTH": "National Commission of Natural Protected Areas",
        "MANG_PLAN": "http://www.conanp.gob.mx/que_hacemos/pdf/programas_manejo/2013/APFF_PICO_DE_TANCITARO.pdf",
        "OECM_ASMT": "Not Applicable",
        "PRNT_ISO3": "MEX",
        "SITE_TYPE": "PA",
        "STATUS_YR": 2009,
        "SUPP_INFO": "Not Applicable",
        "DESIG_TYPE": "National",
        "GIS_M_AREA": 0,
        "GOVSUBTYPE": "Not Applicable",
        "INLND_WTRS": "Not Reported",
        "METADATAID": 1850,
        "NO_TK_AREA": 0,
        "OWNSUBTYPE": "Not Applicable",
        "REP_M_AREA": 0
      }
    }
  ]
}