{
  "type": "FeatureCollection",
  "features": [
    {
      "id": "002d0000000000000c38",
      "type": "Feature",
      "geometry": {
        "type": "Polygon",
        "coordinates": [
          [
            [
              -97.3285043609483,
              18.977229564441796
            ],
            [
              -97.28873814665916,
              18.950943100488143
            ],
            [
              -97.24570776611499,
              18.996836248542444
            ],
            [
              -97.20267750494602,
              19.042729310388086
            ],
            [
              -97.23150335321014,
              19.102539165575273
            ],
            [
              -97.26032918946042,
              19.16234910635711
            ],
            [
              -97.28731458290241,
              19.122640806181227
            ],
            [
              -97.31429994271795,
              19.08293253665056
            ],
            [
              -97.3412853219825,
              19.04322419524182
            ],
            [
              -97.36827069147591,
              19.003515953234704
            ],
            [
              -97.3285043609483,
              18.977229564441796
            ]
          ]
        ]
      },
      "properties": {
        "ISO3": "MEX",
        "NAME": "Pico de Orizaba",
        "DESIG": "Parque Nacional",
        "REALM": "Terrestrial",
        "VERIF": "State Verified",
        "STATUS": "Designated",
        "NO_TAKE": "Not Applicable",
        "SITE_ID": 214,
        "CONS_OBJ": "Not Applicable",
        "GIS_AREA": 197.46293881412,
        "GOV_TYPE": "Federal or national ministry or agency",
        "INT_CRIT": "Not Applicable",
        "IUCN_CAT": "II",
        "NAME_ENG": "Pico de Orizaba",
        "OWN_TYPE": "State",
        "REP_AREA": 197.50005,
        "SITE_PID": "214",
        "DESIG_ENG": "National Park",
        "MANG_AUTH": "National Commission of Natural Protected Areas",
        "MANG_PLAN": "http://www.conanp.gob.mx/que_hacemos/pdf/programas_manejo/2015/PICO_DE_ORIZABA.pdf",
        "OECM_ASMT": "Not Applicable",
        "PRNT_ISO3": "MEX",
        "SITE_TYPE": "PA",
        "STATUS_YR": 1937,
        "SUPP_INFO": "Not Applicable",
        "DESIG_TYPE": "National",
        "GIS_M_AREA": 0,
        "GOVSUBTYPE": "Not Applicable",
        "INLND_WTRS": "Not Reported",
        "METADATAID": 1850,
        "NO_TK_AREA": 0,
        "OWNSUBTYPE": "Not Applicable",
        "REP_M_AREA": 0
      }
    }
  ]
}