{
  "type": "FeatureCollection",
  "features": [
    {
      "id": "002d00000000000012d0",
      "type": "Feature",
      "geometry": {
        "type": "Polygon",
        "coordinates": [
          [
            [
              -90.49244384132622,
              20.532532787039962
            ],
            [
              -90.41909612644974,
              20.53143803789152
            ],
            [
              -90.34574836203691,
              20.5303433464956
            ],
            [
              -90.33536311949834,
              20.52792211365323
            ],
            [
              -90.32039166342796,
              20.653532735775347
            ],
            [
              -90.30542026758651,
              20.77914340080352
            ],
            [
              -90.2955120885395,
              20.8046627703021
            ],
            [
              -90.31939506597422,
              20.815614393603767
            ],
            [
              -90.30777910316615,
              20.847617327833184
            ],
            [
              -90.2899003396733,
              20.89192738990578
            ],
            [
              -90.27202159125902,
              20.936237535035698
            ],
            [
              -90.24565489150997,
              20.9330759545965
            ],
            [
              -90.24057151086362,
              20.946154572027144
            ],
            [
              -90.3113597249504,
              20.969975080220067
            ],
            [
              -90.38214797772123,
              20.99379556607218
            ],
            [
              -90.41154017837157,
              20.914348872540003
            ],
            [
              -90.44093229991394,
              20.834902157131427
            ],
            [
              -90.47032449321367,
              20.755455464126996
            ],
            [
              -90.49971662154809,
              20.676008839046435
            ],
            [
              -90.51011525295657,
              20.604478157756066
            ],
            [
              -90.5205138689358,
              20.532947452654557
            ],
            [
              -90.49244384132622,
              20.532532787039962
            ]
          ]
        ]
      },
      "properties": {
        "ISO3": "MEX",
        "NAME": "Ría Celestún",
        "DESIG": "UNESCO-MAB Biosphere Reserve",
        "REALM": "Coastal",
        "VERIF": "State Verified",
        "STATUS": "Designated",
        "NO_TAKE": "Not Reported",
        "SITE_ID": 902543,
        "CONS_OBJ": "Not Applicable",
        "GIS_AREA": 814.163447425182,
        "GOV_TYPE": "Federal or national ministry or agency",
        "INT_CRIT": "Not Applicable",
        "IUCN_CAT": "Not Applicable",
        "NAME_ENG": "Ría Celestún",
        "OWN_TYPE": "Not Reported",
        "REP_AREA": 814.8233,
        "SITE_PID": "902543",
        "DESIG_ENG": "UNESCO-MAB Biosphere Reserve",
        "MANG_AUTH": "Ministry of the Environment and Natural Resources through the National Commission of Natural Protected Areas",
        "MANG_PLAN": "Not Reported",
        "OECM_ASMT": "Not Applicable",
        "PRNT_ISO3": "MEX",
        "SITE_TYPE": "PA",
        "STATUS_YR": 2004,
        "SUPP_INFO": "Not Applicable",
        "DESIG_TYPE": "International",
        "GIS_M_AREA": 239.227996196152,
        "GOVSUBTYPE": "Not Applicable",
        "INLND_WTRS": "Not Reported",
        "METADATAID": 1850,
        "NO_TK_AREA": 0,
        "OWNSUBTYPE": "Not Applicable",
        "REP_M_AREA": 227.79
      }
    }
  ]
}