{
  "type": "FeatureCollection",
  "features": [
    {
      "id": "002e0000000000001ca1",
      "type": "Feature",
      "geometry": {
        "type": "Polygon",
        "coordinates": [
          [
            [
              -103.81836928116536,
              23.784733544472243
            ],
            [
              -103.81916296982752,
              23.783079202316603
            ],
            [
              -103.8123494625654,
              23.77836597232436
            ],
            [
              -103.80249931594271,
              23.77559242368892
            ],
            [
              -103.79796881867954,
              23.770531267116432
            ],
            [
              -103.78377105689236,
              23.768671895392174
            ],
            [
              -103.78476994369191,
              23.774959228590816
            ],
            [
              -103.78002987300208,
              23.778223245295308
            ],
            [
              -103.77950369999004,
              23.780831860209688
            ],
            [
              -103.77709585030968,
              23.78161666167467
            ],
            [
              -103.77696649802114,
              23.784202886882706
            ],
            [
              -103.77844693930113,
              23.786432424141772
            ],
            [
              -103.78006108447205,
              23.786807003522895
            ],
            [
              -103.78306210552661,
              23.7910788234177
            ],
            [
              -103.78938506132724,
              23.789910542937495
            ],
            [
              -103.79036161833818,
              23.788555018318366
            ],
            [
              -103.7912401189414,
              23.789339811315994
            ],
            [
              -103.79206503931417,
              23.792122259068297
            ],
            [
              -103.795552061511,
              23.796130988356833
            ],
            [
              -103.79540491750383,
              23.79613099068181
            ],
            [
              -103.79280967377571,
              23.801018146627285
            ],
            [
              -103.81005298821376,
              23.806703524418722
            ],
            [
              -103.81617980713689,
              23.807862898185213
            ],
            [
              -103.81975156187359,
              23.801638011598722
            ],
            [
              -103.81836928116536,
              23.784733544472243
            ]
          ]
        ]
      },
      "properties": {
        "ISO3": "MEX",
        "NAME": "Sierra de Órganos",
        "DESIG": "Parque Nacional",
        "REALM": "Terrestrial",
        "VERIF": "State Verified",
        "STATUS": "Designated",
        "NO_TAKE": "Not Applicable",
        "SITE_ID": 306848,
        "CONS_OBJ": "Not Applicable",
        "GIS_AREA": 11.2526127957951,
        "GOV_TYPE": "Federal or national ministry or agency",
        "INT_CRIT": "Not Applicable",
        "IUCN_CAT": "II",
        "NAME_ENG": "Sierra de Órganos",
        "OWN_TYPE": "State",
        "REP_AREA": 11.24656176,
        "SITE_PID": "306848",
        "DESIG_ENG": "National Park",
        "MANG_AUTH": "National Commission of Natural Protected Areas",
        "MANG_PLAN": "http://www.conanp.gob.mx/que_hacemos/pdf/programas_manejo/2014/SIERRA_DE_ORGANOS_2014.pdf",
        "OECM_ASMT": "Not Applicable",
        "PRNT_ISO3": "MEX",
        "SITE_TYPE": "PA",
        "STATUS_YR": 2000,
        "SUPP_INFO": "Not Applicable",
        "DESIG_TYPE": "National",
        "GIS_M_AREA": 0,
        "GOVSUBTYPE": "Not Applicable",
        "INLND_WTRS": "Not Reported",
        "METADATAID": 1850,
        "NO_TK_AREA": 0,
        "OWNSUBTYPE": "Not Applicable",
        "REP_M_AREA": 0
      }
    }
  ]
}