{
  "type": "FeatureCollection",
  "features": [
    {
      "id": "002d00000000000011da",
      "type": "Feature",
      "geometry": {
        "type": "MultiPolygon",
        "coordinates": [
          [
            [
              [
                -111.46250141322099,
                26.933331534125728
              ],
              [
                -111.40833445345088,
                26.933331579314995
              ],
              [
                -111.35416751638908,
                26.933331562113825
              ],
              [
                -111.3000005628859,
                26.933331525022894
              ],
              [
                -111.3000005628859,
                27.133331144373578
              ],
              [
                -111.35416751638907,
                27.133331175268623
              ],
              [
                -111.40833445345088,
                27.133331120060305
              ],
              [
                -111.46250141322099,
                27.133331106912642
              ],
              [
                -111.51666834395215,
                27.133331107431314
              ],
              [
                -111.51666834395215,
                26.933331569254783
              ],
              [
                -111.46250141322099,
                26.933331534125728
              ]
            ]
          ],
          [
            [
              [
                -109.12500046143796,
                20.716666880857343
              ],
              [
                -109.05000066888353,
                20.716666886464413
              ],
              [
                -108.97500079025419,
                20.716666914816113
              ],
              [
                -108.90000094530983,
                20.716666934183834
              ],
              [
                -108.90000094530981,
                20.999998151421025
              ],
              [
                -108.97500079025419,
                20.99999817985581
              ],
              [
                -109.05000066888353,
                20.99999821830825
              ],
              [
                -109.12500046143796,
                20.999998210718882
              ],
              [
                -109.20000032087941,
                20.999998156437954
              ],
              [
                -109.20000032087941,
                20.716666898126043
              ],
              [
                -109.12500046143796,
                20.716666880857343
              ]
            ]
          ]
        ]
      },
      "properties": {
        "ISO3": "MEX",
        "NAME": "Ventilas Hidrotermales de la Cuenca de Guaymas y de la Dorsal del Pacífico Oriental",
        "DESIG": "Santuario",
        "REALM": "Marine",
        "VERIF": "State Verified",
        "STATUS": "Designated",
        "NO_TAKE": "Not Reported",
        "SITE_ID": 107840,
        "CONS_OBJ": "Not Applicable",
        "GIS_AREA": 1455.79538480033,
        "GOV_TYPE": "Federal or national ministry or agency",
        "INT_CRIT": "Not Applicable",
        "IUCN_CAT": "II",
        "NAME_ENG": "Ventilas Hidrotermales de la Cuenca de Guaymas y de la Dorsal del Pacífico Oriental",
        "OWN_TYPE": "State",
        "REP_AREA": 1455.64808388,
        "SITE_PID": "107840",
        "DESIG_ENG": "Sanctuary",
        "MANG_AUTH": "National Commission of Natural Protected Areas",
        "MANG_PLAN": "http://www.conanp.gob.mx/que_hacemos/pdf/programas_manejo/2014/VENTILAS_HIDROTERMALES.pdf",
        "OECM_ASMT": "Not Applicable",
        "PRNT_ISO3": "MEX",
        "SITE_TYPE": "PA",
        "STATUS_YR": 2009,
        "SUPP_INFO": "Not Applicable",
        "DESIG_TYPE": "National",
        "GIS_M_AREA": 1455.79538480033,
        "GOVSUBTYPE": "Not Applicable",
        "INLND_WTRS": "Not Applicable",
        "METADATAID": 1850,
        "NO_TK_AREA": 0,
        "OWNSUBTYPE": "Not Applicable",
        "REP_M_AREA": 1455.64808
      }
    }
  ]
}