{
  "type": "FeatureCollection",
  "features": [
    {
      "id": "002d0000000000001288",
      "type": "Feature",
      "geometry": {
        "type": "Polygon",
        "coordinates": [
          [
            [
              -98.23136978544468,
              19.31196983919789
            ],
            [
              -98.22416385499403,
              19.327991392091583
            ],
            [
              -98.21552212581966,
              19.339032099302926
            ],
            [
              -98.24792201328418,
              19.334630979115058
            ],
            [
              -98.24802902341337,
              19.312041128404932
            ],
            [
              -98.23136978544468,
              19.31196983919789
            ]
          ]
        ]
      },
      "properties": {
        "ISO3": "MEX",
        "NAME": "Xicoténcatl",
        "DESIG": "Parque Nacional",
        "REALM": "Terrestrial",
        "VERIF": "State Verified",
        "STATUS": "Designated",
        "NO_TAKE": "Not Applicable",
        "SITE_ID": 306854,
        "CONS_OBJ": "Not Applicable",
        "GIS_AREA": 6.5402141626012,
        "GOV_TYPE": "Federal or national ministry or agency",
        "INT_CRIT": "Not Applicable",
        "IUCN_CAT": "II",
        "NAME_ENG": "Xicoténcatl",
        "OWN_TYPE": "State",
        "REP_AREA": 8.51303405,
        "SITE_PID": "306854",
        "DESIG_ENG": "National Park",
        "MANG_AUTH": "National Commission of Natural Protected Areas",
        "MANG_PLAN": "Not Reported",
        "OECM_ASMT": "Not Applicable",
        "PRNT_ISO3": "MEX",
        "SITE_TYPE": "PA",
        "STATUS_YR": 1937,
        "SUPP_INFO": "Not Applicable",
        "DESIG_TYPE": "National",
        "GIS_M_AREA": 0,
        "GOVSUBTYPE": "Not Applicable",
        "INLND_WTRS": "Not Reported",
        "METADATAID": 1850,
        "NO_TK_AREA": 0,
        "OWNSUBTYPE": "Not Applicable",
        "REP_M_AREA": 0
      }
    }
  ]
}