{
  "type": "FeatureCollection",
  "features": [
    {
      "id": "002d0000000000000472",
      "type": "Feature",
      "geometry": {
        "type": "Polygon",
        "coordinates": [
          [
            [
              -96.46370629886098,
              16.964957651848522
            ],
            [
              -96.46380891497166,
              16.957087315424907
            ],
            [
              -96.46592250242408,
              16.951459969529477
            ],
            [
              -96.46362604374642,
              16.9473798528614
            ],
            [
              -96.43316151935068,
              16.933150901069492
            ],
            [
              -96.4318282522777,
              16.941681161281174
            ],
            [
              -96.43111924689086,
              16.954367227246006
            ],
            [
              -96.43541330531266,
              16.960757154641378
            ],
            [
              -96.45892621543341,
              16.974366314462724
            ],
            [
              -96.47156325594008,
              16.968948530239903
            ],
            [
              -96.46370629886098,
              16.964957651848522
            ]
          ]
        ]
      },
      "properties": {
        "ISO3": "MEX",
        "NAME": "Yagul",
        "DESIG": "Monumento Natural",
        "REALM": "Terrestrial",
        "VERIF": "State Verified",
        "STATUS": "Designated",
        "NO_TAKE": "Not Applicable",
        "SITE_ID": 301940,
        "CONS_OBJ": "Not Applicable",
        "GIS_AREA": 10.752538313617,
        "GOV_TYPE": "Federal or national ministry or agency",
        "INT_CRIT": "Not Applicable",
        "IUCN_CAT": "III",
        "NAME_ENG": "Yagul",
        "OWN_TYPE": "State",
        "REP_AREA": 10.7606386,
        "SITE_PID": "301940",
        "DESIG_ENG": "Natural Monument",
        "MANG_AUTH": "National Commission of Natural Protected Areas",
        "MANG_PLAN": "http://www.conanp.gob.mx/que_hacemos/pdf/programas_manejo/MN_Yagul_2013.pdf",
        "OECM_ASMT": "Not Applicable",
        "PRNT_ISO3": "MEX",
        "SITE_TYPE": "PA",
        "STATUS_YR": 1999,
        "SUPP_INFO": "Not Applicable",
        "DESIG_TYPE": "National",
        "GIS_M_AREA": 0,
        "GOVSUBTYPE": "Not Applicable",
        "INLND_WTRS": "Not Reported",
        "METADATAID": 1850,
        "NO_TK_AREA": 0,
        "OWNSUBTYPE": "Not Applicable",
        "REP_M_AREA": 0
      }
    }
  ]
}