{
  "type": "FeatureCollection",
  "features": [
    {
      "id": "002d000000000000125e",
      "type": "Feature",
      "geometry": {
        "type": "Polygon",
        "coordinates": [
          [
            [
              -98.17667890767166,
              20.065785293040065
            ],
            [
              -98.10051301067035,
              20.07128336464444
            ],
            [
              -98.06336200141827,
              20.083690785117586
            ],
            [
              -98.02621104904033,
              20.096098292904426
            ],
            [
              -97.98264338824114,
              20.133997277833387
            ],
            [
              -97.93907573780903,
              20.171896331215784
            ],
            [
              -97.89550804976722,
              20.209795266594718
            ],
            [
              -97.85194044267121,
              20.24769434135739
            ],
            [
              -97.90598917136703,
              20.244978750718115
            ],
            [
              -97.96003797627175,
              20.242263100448632
            ],
            [
              -98.01408671429238,
              20.23954757370586
            ],
            [
              -98.06813549261295,
              20.236831981243675
            ],
            [
              -98.10146284086424,
              20.217338982044232
            ],
            [
              -98.13479013170627,
              20.197846061856588
            ],
            [
              -98.16811747933738,
              20.17835305525065
            ],
            [
              -98.20144474803718,
              20.158860079043638
            ],
            [
              -98.22724067557625,
              20.106461221534733
            ],
            [
              -98.17667890767166,
              20.065785293040065
            ]
          ]
        ]
      },
      "properties": {
        "ISO3": "MEX",
        "NAME": "Z.P.F.V. la Cuenca Hidrográfica del Río Necaxa",
        "DESIG": "Área de Protección de los Recursos Naturales",
        "REALM": "Terrestrial",
        "VERIF": "State Verified",
        "STATUS": "Designated",
        "NO_TAKE": "Not Applicable",
        "SITE_ID": 306787,
        "CONS_OBJ": "Not Applicable",
        "GIS_AREA": 421.537349094595,
        "GOV_TYPE": "Federal or national ministry or agency",
        "INT_CRIT": "Not Applicable",
        "IUCN_CAT": "VI",
        "NAME_ENG": "Z.P.F.V. la Cuenca Hidrográfica del Río Necaxa",
        "OWN_TYPE": "State",
        "REP_AREA": 421.29353204,
        "SITE_PID": "306787",
        "DESIG_ENG": "Natural Resources Protection Area",
        "MANG_AUTH": "National Commission of Natural Protected Areas",
        "MANG_PLAN": "Not Reported",
        "OECM_ASMT": "Not Applicable",
        "PRNT_ISO3": "MEX",
        "SITE_TYPE": "PA",
        "STATUS_YR": 2002,
        "SUPP_INFO": "Not Applicable",
        "DESIG_TYPE": "National",
        "GIS_M_AREA": 0,
        "GOVSUBTYPE": "Not Applicable",
        "INLND_WTRS": "Not Reported",
        "METADATAID": 1850,
        "NO_TK_AREA": 0,
        "OWNSUBTYPE": "Not Applicable",
        "REP_M_AREA": 0
      }
    }
  ]
}